" ""keeper"" "," ""g"" "," ""nameKeeper"" "," ""collection"" "," ""collectionLabel"" "," ""artHistorian"" "," ""numberOfItems"" "," ""artHistorianName"" "," ""period"" "," ""periodLabel"" "," ""address"" "," ""cityKeeper"" "," ""cityKeeperLabel"" "," ""districtKeeper"" "," ""districtKeeperLabel"" "," ""countryKeeper"" "," ""countryKeeperLabel"" "," ""websiteKeeper"" ",  ,  ,  ,  ,  ,  ,  ,  ,  ,  ,  ,  ,  ,  ,  ,  ,  ,  ,,,,,,,,,,
" ""wd:Q1634770"" "," ""art:1611658234-4876647/"" "," ""     Fondazione Roberto Longhi"" "," ""art:collectionarchivio-longhi"" "," ""Archivio Longhi"" "," ""wd:Q1361667"" "," ""278 boxes"" "," ""                 Roberto Longhi"" "," ""wd:Q7016"" "," ""                   17th century"" "," ""via Benedetto Fortini"," 30"" "," ""wd:Q2044"" "," ""                  Florence"" "," ""wd:Q16172"" "," ""                  Province of Florence"" "," ""wd:Q38"" "," ""                   Italy"" "," ""https://fondazionelonghi.it/wordpress/it/"" ",  ,  ,  ,  ,  ,  ,  ,  ,  ,  ,  ,  ,  ,  ,  ,  ,  ,  ,,,,,,,,,
" ""wd:Q1634770"" "," ""art:1611658234-4876647/"" "," ""Fondazione Roberto Longhi"" "," ""art:collectionarchivio-longhi"" "," ""Archivio Longhi"" "," ""wd:Q1361667"" "," ""278 boxes"" "," ""Roberto Longhi"" "," ""wd:Q4692"" "," ""                   Renaissance"" "," ""via Benedetto Fortini"," 30"" "," ""wd:Q2044"" "," ""                  Florence"" "," ""wd:Q16172"" "," ""                  Province of Florence"" "," ""wd:Q38"" "," ""                   Italy"" "," ""https://fondazionelonghi.it/wordpress/it/"" ",  ,  ,  ,  ,  ,  ,  ,  ,  ,  ,  ,  ,  ,  ,  ,  ,  ,  ,,,,,,,,,
" ""wd:Q1634770"" "," ""art:1611658234-4876647/"" "," ""     Fondazione Roberto Longhi"" "," ""art:collectionarchivio-longhi"" "," ""Archivio Longhi"" "," ""wd:Q1361667"" "," ""278 boxes"" "," ""Roberto Longhi"" "," ""wd:Q4692"" "," ""                   Renaissance"" "," ""via Benedetto Fortini"," 30"" "," ""wd:Q2044"" "," ""                  Florence"" "," ""wd:Q16172"" "," ""                  Province of Florence"" "," ""wd:Q38"" "," ""                   Italy"" "," ""https://fondazionelonghi.it/wordpress/it/"" ",  ,  ,  ,  ,  ,  ,  ,  ,  ,  ,  ,  ,  ,  ,  ,  ,  ,  ,,,,,,,,,
" ""wd:Q1634770"" "," ""art:1611658234-4876647/"" "," ""Fondazione Roberto Longhi"" "," ""art:collectionarchivio-longhi"" "," ""Archivio Longhi"" "," ""wd:Q1361667"" "," ""278 boxes"" "," ""                 Roberto Longhi"" "," ""wd:Q4692"" "," ""                   Renaissance"" "," ""via Benedetto Fortini"," 30"" "," ""wd:Q2044"" "," ""                  Florence"" "," ""wd:Q16172"" "," ""                  Province of Florence"" "," ""wd:Q38"" "," ""                   Italy"" "," ""https://fondazionelonghi.it/wordpress/it/"" ",  ,  ,  ,  ,  ,  ,  ,  ,  ,  ,  ,  ,  ,  ,  ,  ,  ,  ,,,,,,,,,
" ""wd:Q1634770"" "," ""art:1611658234-4876647/"" "," ""     Fondazione Roberto Longhi"" "," ""art:collectionarchivio-longhi"" "," ""Archivio Longhi"" "," ""wd:Q1361667"" "," ""278 boxes"" "," ""                 Roberto Longhi"" "," ""wd:Q4692"" "," ""                   Renaissance"" "," ""via Benedetto Fortini"," 30"" "," ""wd:Q2044"" "," ""                  Florence"" "," ""wd:Q16172"" "," ""                  Province of Florence"" "," ""wd:Q38"" "," ""                   Italy"" "," ""https://fondazionelonghi.it/wordpress/it/"" ",  ,  ,  ,  ,  ,  ,  ,  ,  ,  ,  ,  ,  ,  ,  ,  ,  ,  ,,,,,,,,,
" ""wd:Q1634770"" "," ""art:1611658234-4876647/"" "," ""Fondazione Roberto Longhi"" "," ""art:collectionarchivio-longhi"" "," ""Archivio Longhi"" "," ""wd:Q1361667"" "," ""278 boxes"" "," ""Roberto Longhi"" "," ""wd:Q7018"" "," ""                   15th century"" "," ""via Benedetto Fortini"," 30"" "," ""wd:Q2044"" "," ""                  Florence"" "," ""wd:Q16172"" "," ""                  Province of Florence"" "," ""wd:Q38"" "," ""                   Italy"" "," ""https://fondazionelonghi.it/wordpress/it/"" ",  ,  ,  ,  ,  ,  ,  ,  ,  ,  ,  ,  ,  ,  ,  ,  ,  ,  ,,,,,,,,,
" ""wd:Q1634770"" "," ""art:1611658234-4876647/"" "," ""     Fondazione Roberto Longhi"" "," ""art:collectionarchivio-longhi"" "," ""Archivio Longhi"" "," ""wd:Q1361667"" "," ""278 boxes"" "," ""Roberto Longhi"" "," ""wd:Q7018"" "," ""                   15th century"" "," ""via Benedetto Fortini"," 30"" "," ""wd:Q2044"" "," ""                  Florence"" "," ""wd:Q16172"" "," ""                  Province of Florence"" "," ""wd:Q38"" "," ""                   Italy"" "," ""https://fondazionelonghi.it/wordpress/it/"" ",  ,  ,  ,  ,  ,  ,  ,  ,  ,  ,  ,  ,  ,  ,  ,  ,  ,  ,,,,,,,,,
" ""wd:Q1634770"" "," ""art:1611658234-4876647/"" "," ""Fondazione Roberto Longhi"" "," ""art:collectionarchivio-longhi"" "," ""Archivio Longhi"" "," ""wd:Q1361667"" "," ""278 boxes"" "," ""                 Roberto Longhi"" "," ""wd:Q7018"" "," ""                   15th century"" "," ""via Benedetto Fortini"," 30"" "," ""wd:Q2044"" "," ""                  Florence"" "," ""wd:Q16172"" "," ""                  Province of Florence"" "," ""wd:Q38"" "," ""                   Italy"" "," ""https://fondazionelonghi.it/wordpress/it/"" ",  ,  ,  ,  ,  ,  ,  ,  ,  ,  ,  ,  ,  ,  ,  ,  ,  ,  ,,,,,,,,,
" ""wd:Q1634770"" "," ""art:1611658234-4876647/"" "," ""     Fondazione Roberto Longhi"" "," ""art:collectionarchivio-longhi"" "," ""Archivio Longhi"" "," ""wd:Q1361667"" "," ""278 boxes"" "," ""                 Roberto Longhi"" "," ""wd:Q7018"" "," ""                   15th century"" "," ""via Benedetto Fortini"," 30"" "," ""wd:Q2044"" "," ""                  Florence"" "," ""wd:Q16172"" "," ""                  Province of Florence"" "," ""wd:Q38"" "," ""                   Italy"" "," ""https://fondazionelonghi.it/wordpress/it/"" ",  ,  ,  ,  ,  ,  ,  ,  ,  ,  ,  ,  ,  ,  ,  ,  ,  ,  ,,,,,,,,,
" ""wd:Q1634770"" "," ""art:1611658234-4876647/"" "," ""Fondazione Roberto Longhi"" "," ""art:collectionarchivio-longhi"" "," ""Archivio Longhi"" "," ""wd:Q1361667"" "," ""278 boxes"" "," ""Roberto Longhi"" "," ""wd:Q7034"" "," ""                   14th century"" "," ""via Benedetto Fortini"," 30"" "," ""wd:Q2044"" "," ""                  Florence"" "," ""wd:Q16172"" "," ""                  Province of Florence"" "," ""wd:Q38"" "," ""                   Italy"" "," ""https://fondazionelonghi.it/wordpress/it/"" ",  ,  ,  ,  ,  ,  ,  ,  ,  ,  ,  ,  ,  ,  ,  ,  ,  ,  ,,,,,,,,,
" ""wd:Q1634770"" "," ""art:1611658234-4876647/"" "," ""     Fondazione Roberto Longhi"" "," ""art:collectionarchivio-longhi"" "," ""Archivio Longhi"" "," ""wd:Q1361667"" "," ""278 boxes"" "," ""Roberto Longhi"" "," ""wd:Q7034"" "," ""                   14th century"" "," ""via Benedetto Fortini"," 30"" "," ""wd:Q2044"" "," ""                  Florence"" "," ""wd:Q16172"" "," ""                  Province of Florence"" "," ""wd:Q38"" "," ""                   Italy"" "," ""https://fondazionelonghi.it/wordpress/it/"" ",  ,  ,  ,  ,  ,  ,  ,  ,  ,  ,  ,  ,  ,  ,  ,  ,  ,  ,,,,,,,,,
" ""wd:Q1634770"" "," ""art:1611658234-4876647/"" "," ""Fondazione Roberto Longhi"" "," ""art:collectionarchivio-longhi"" "," ""Archivio Longhi"" "," ""wd:Q1361667"" "," ""278 boxes"" "," ""                 Roberto Longhi"" "," ""wd:Q7034"" "," ""                   14th century"" "," ""via Benedetto Fortini"," 30"" "," ""wd:Q2044"" "," ""                  Florence"" "," ""wd:Q16172"" "," ""                  Province of Florence"" "," ""wd:Q38"" "," ""                   Italy"" "," ""https://fondazionelonghi.it/wordpress/it/"" ",  ,  ,  ,  ,  ,  ,  ,  ,  ,  ,  ,  ,  ,  ,  ,  ,  ,  ,,,,,,,,,
" ""wd:Q1634770"" "," ""art:1611658234-4876647/"" "," ""     Fondazione Roberto Longhi"" "," ""art:collectionarchivio-longhi"" "," ""Archivio Longhi"" "," ""wd:Q1361667"" "," ""278 boxes"" "," ""                 Roberto Longhi"" "," ""wd:Q7034"" "," ""                   14th century"" "," ""via Benedetto Fortini"," 30"" "," ""wd:Q2044"" "," ""                  Florence"" "," ""wd:Q16172"" "," ""                  Province of Florence"" "," ""wd:Q38"" "," ""                   Italy"" "," ""https://fondazionelonghi.it/wordpress/it/"" ",  ,  ,  ,  ,  ,  ,  ,  ,  ,  ,  ,  ,  ,  ,  ,  ,  ,  ,,,,,,,,,
" ""wd:Q1634770"" "," ""art:1611658234-4876647/"" "," ""Fondazione Roberto Longhi"" "," ""art:collectionarchivio-longhi"" "," ""Archivio Longhi"" "," ""wd:Q1361667"" "," ""278 boxes"" "," ""Roberto Longhi"" "," ""wd:Q7017"" "," ""   16th century"" "," ""via Benedetto Fortini"," 30"" "," ""wd:Q2044"" "," ""                  Florence"" "," ""wd:Q16172"" "," ""                  Province of Florence"" "," ""wd:Q38"" "," ""                   Italy"" "," ""https://fondazionelonghi.it/wordpress/it/"" ",  ,  ,  ,  ,  ,  ,  ,  ,  ,  ,  ,  ,  ,  ,  ,  ,  ,  ,,,,,,,,,
" ""wd:Q1634770"" "," ""art:1611658234-4876647/"" "," ""     Fondazione Roberto Longhi"" "," ""art:collectionarchivio-longhi"" "," ""Archivio Longhi"" "," ""wd:Q1361667"" "," ""278 boxes"" "," ""Roberto Longhi"" "," ""wd:Q7017"" "," ""   16th century"" "," ""via Benedetto Fortini"," 30"" "," ""wd:Q2044"" "," ""                  Florence"" "," ""wd:Q16172"" "," ""                  Province of Florence"" "," ""wd:Q38"" "," ""                   Italy"" "," ""https://fondazionelonghi.it/wordpress/it/"" ",  ,  ,  ,  ,  ,  ,  ,  ,  ,  ,  ,  ,  ,  ,  ,  ,  ,  ,,,,,,,,,
" ""wd:Q1634770"" "," ""art:1611658234-4876647/"" "," ""Fondazione Roberto Longhi"" "," ""art:collectionarchivio-longhi"" "," ""Archivio Longhi"" "," ""wd:Q1361667"" "," ""278 boxes"" "," ""                 Roberto Longhi"" "," ""wd:Q7017"" "," ""   16th century"" "," ""via Benedetto Fortini"," 30"" "," ""wd:Q2044"" "," ""                  Florence"" "," ""wd:Q16172"" "," ""                  Province of Florence"" "," ""wd:Q38"" "," ""                   Italy"" "," ""https://fondazionelonghi.it/wordpress/it/"" ",  ,  ,  ,  ,  ,  ,  ,  ,  ,  ,  ,  ,  ,  ,  ,  ,  ,  ,,,,,,,,,
" ""wd:Q1634770"" "," ""art:1611658234-4876647/"" "," ""     Fondazione Roberto Longhi"" "," ""art:collectionarchivio-longhi"" "," ""Archivio Longhi"" "," ""wd:Q1361667"" "," ""278 boxes"" "," ""                 Roberto Longhi"" "," ""wd:Q7017"" "," ""   16th century"" "," ""via Benedetto Fortini"," 30"" "," ""wd:Q2044"" "," ""                  Florence"" "," ""wd:Q16172"" "," ""                  Province of Florence"" "," ""wd:Q38"" "," ""                   Italy"" "," ""https://fondazionelonghi.it/wordpress/it/"" ",  ,  ,  ,  ,  ,  ,  ,  ,  ,  ,  ,  ,  ,  ,  ,  ,  ,  ,,,,,,,,,
" ""wd:Q1634770"" "," ""art:1611658234-4876647/"" "," ""Fondazione Roberto Longhi"" "," ""art:collectionarchivio-longhi"" "," ""Archivio Longhi"" "," ""wd:Q1361667"" "," ""278 boxes"" "," ""Roberto Longhi"" "," ""wd:Q6927"" "," ""                   20th century"" "," ""via Benedetto Fortini"," 30"" "," ""wd:Q2044"" "," ""                  Florence"" "," ""wd:Q16172"" "," ""                  Province of Florence"" "," ""wd:Q38"" "," ""                   Italy"" "," ""https://fondazionelonghi.it/wordpress/it/"" ",  ,  ,  ,  ,  ,  ,  ,  ,  ,  ,  ,  ,  ,  ,  ,  ,  ,  ,,,,,,,,,
" ""wd:Q1634770"" "," ""art:1611658234-4876647/"" "," ""     Fondazione Roberto Longhi"" "," ""art:collectionarchivio-longhi"" "," ""Archivio Longhi"" "," ""wd:Q1361667"" "," ""278 boxes"" "," ""Roberto Longhi"" "," ""wd:Q6927"" "," ""                   20th century"" "," ""via Benedetto Fortini"," 30"" "," ""wd:Q2044"" "," ""                  Florence"" "," ""wd:Q16172"" "," ""                  Province of Florence"" "," ""wd:Q38"" "," ""                   Italy"" "," ""https://fondazionelonghi.it/wordpress/it/"" ",  ,  ,  ,  ,  ,  ,  ,  ,  ,  ,  ,  ,  ,  ,  ,  ,  ,  ,,,,,,,,,
" ""wd:Q1634770"" "," ""art:1611658234-4876647/"" "," ""Fondazione Roberto Longhi"" "," ""art:collectionarchivio-longhi"" "," ""Archivio Longhi"" "," ""wd:Q1361667"" "," ""278 boxes"" "," ""                 Roberto Longhi"" "," ""wd:Q6927"" "," ""                   20th century"" "," ""via Benedetto Fortini"," 30"" "," ""wd:Q2044"" "," ""                  Florence"" "," ""wd:Q16172"" "," ""                  Province of Florence"" "," ""wd:Q38"" "," ""                   Italy"" "," ""https://fondazionelonghi.it/wordpress/it/"" ",  ,  ,  ,  ,  ,  ,  ,  ,  ,  ,  ,  ,  ,  ,  ,  ,  ,  ,,,,,,,,,
" ""wd:Q1634770"" "," ""art:1611658234-4876647/"" "," ""     Fondazione Roberto Longhi"" "," ""art:collectionarchivio-longhi"" "," ""Archivio Longhi"" "," ""wd:Q1361667"" "," ""278 boxes"" "," ""                 Roberto Longhi"" "," ""wd:Q6927"" "," ""                   20th century"" "," ""via Benedetto Fortini"," 30"" "," ""wd:Q2044"" "," ""                  Florence"" "," ""wd:Q16172"" "," ""                  Province of Florence"" "," ""wd:Q38"" "," ""                   Italy"" "," ""https://fondazionelonghi.it/wordpress/it/"" ",  ,  ,  ,  ,  ,  ,  ,  ,  ,  ,  ,  ,  ,  ,  ,  ,  ,  ,,,,,,,,,
" ""wd:Q108323065"" "," ""art:1638187830-7530286/"" "," ""Direzione regionale musei della Toscana"" "," ""art:collectionarchive-cesare-brandi"" "," ""Archive Cesare Brandi"" "," ""wd:Q1056780"" "," ""Library: about 5000 units; works of art in the collection: 77 units; movable property: 502 units; correspondence (letters and postcards): 16",000 units approx. arranged in 106 folders; various documents and papers related to the family: 14 folders; various documents and papers related to Villa Brandi (press review, inventories, OA files, administrative deeds): 11 folders; documents and deeds of the work of Cesare Brandi at the Superintendence of Monuments and Galleries of Siena: 1 folder; pen sketches: 1 folder; manuscripts (unpublished writings, drafts, notebooks and notes for publications): 97 folders; photo library: 6446 units approx. arranged in 95 containers, 2 DVDs, 1 pc and 1 hard disk; original supports from the photo library: 15 folders; family photographs: 5 boxes," 1 folder and 1 DVD; slides: 3 boxes."" "," ""Cesare Brandi"" "," ""wd:Q7016"" "," ""     17th century"" "," ""Piazza de' Mozzi"," 2"" "," ""wd:Q2044"" "," ""     Florence"" "," ""wd:Q16172"" "," ""     Province of Florence"" "," ""wd:Q38"" "," ""     Italy"" "," ""file:////home/fzeri/artchives/records/www.polomusealetoscana.beniculturali.it"" ",  ,  ,  ,  ,  ,  ,  ,  ,  ,  ,  ,  ,  ,  ,  ,  ,  ,  
" ""wd:Q108323065"" "," ""art:1638187830-7530286/"" "," ""Direzione regionale musei della Toscana"" "," ""art:collectionarchive-cesare-brandi"" "," ""Archive Cesare Brandi"" "," ""wd:Q1056780"" "," ""Library: about 5000 units; works of art in the collection: 77 units; movable property: 502 units; correspondence (letters and postcards): 16",000 units approx. arranged in 106 folders; various documents and papers related to the family: 14 folders; various documents and papers related to Villa Brandi (press review, inventories, OA files, administrative deeds): 11 folders; documents and deeds of the work of Cesare Brandi at the Superintendence of Monuments and Galleries of Siena: 1 folder; pen sketches: 1 folder; manuscripts (unpublished writings, drafts, notebooks and notes for publications): 97 folders; photo library: 6446 units approx. arranged in 95 containers, 2 DVDs, 1 pc and 1 hard disk; original supports from the photo library: 15 folders; family photographs: 5 boxes," 1 folder and 1 DVD; slides: 3 boxes."" "," ""Cesare Brandi"" "," ""wd:Q4692"" "," ""     Renaissance"" "," ""Piazza de' Mozzi"," 2"" "," ""wd:Q2044"" "," ""     Florence"" "," ""wd:Q16172"" "," ""     Province of Florence"" "," ""wd:Q38"" "," ""     Italy"" "," ""file:////home/fzeri/artchives/records/www.polomusealetoscana.beniculturali.it"" ",  ,  ,  ,  ,  ,  ,  ,  ,  ,  ,  ,  ,  ,  ,  ,  ,  ,  
" ""wd:Q108323065"" "," ""art:1638187830-7530286/"" "," ""Direzione regionale musei della Toscana"" "," ""art:collectionarchive-cesare-brandi"" "," ""Archive Cesare Brandi"" "," ""wd:Q1056780"" "," ""Library: about 5000 units; works of art in the collection: 77 units; movable property: 502 units; correspondence (letters and postcards): 16",000 units approx. arranged in 106 folders; various documents and papers related to the family: 14 folders; various documents and papers related to Villa Brandi (press review, inventories, OA files, administrative deeds): 11 folders; documents and deeds of the work of Cesare Brandi at the Superintendence of Monuments and Galleries of Siena: 1 folder; pen sketches: 1 folder; manuscripts (unpublished writings, drafts, notebooks and notes for publications): 97 folders; photo library: 6446 units approx. arranged in 95 containers, 2 DVDs, 1 pc and 1 hard disk; original supports from the photo library: 15 folders; family photographs: 5 boxes," 1 folder and 1 DVD; slides: 3 boxes."" "," ""Cesare Brandi"" "," ""wd:Q7018"" "," ""     15th century"" "," ""Piazza de' Mozzi"," 2"" "," ""wd:Q2044"" "," ""     Florence"" "," ""wd:Q16172"" "," ""     Province of Florence"" "," ""wd:Q38"" "," ""     Italy"" "," ""file:////home/fzeri/artchives/records/www.polomusealetoscana.beniculturali.it"" ",  ,  ,  ,  ,  ,  ,  ,  ,  ,  ,  ,  ,  ,  ,  ,  ,  ,  
" ""wd:Q108323065"" "," ""art:1638187830-7530286/"" "," ""Direzione regionale musei della Toscana"" "," ""art:collectionarchive-cesare-brandi"" "," ""Archive Cesare Brandi"" "," ""wd:Q1056780"" "," ""Library: about 5000 units; works of art in the collection: 77 units; movable property: 502 units; correspondence (letters and postcards): 16",000 units approx. arranged in 106 folders; various documents and papers related to the family: 14 folders; various documents and papers related to Villa Brandi (press review, inventories, OA files, administrative deeds): 11 folders; documents and deeds of the work of Cesare Brandi at the Superintendence of Monuments and Galleries of Siena: 1 folder; pen sketches: 1 folder; manuscripts (unpublished writings, drafts, notebooks and notes for publications): 97 folders; photo library: 6446 units approx. arranged in 95 containers, 2 DVDs, 1 pc and 1 hard disk; original supports from the photo library: 15 folders; family photographs: 5 boxes," 1 folder and 1 DVD; slides: 3 boxes."" "," ""Cesare Brandi"" "," ""wd:Q7017"" "," ""     16th century"" "," ""Piazza de' Mozzi"," 2"" "," ""wd:Q2044"" "," ""     Florence"" "," ""wd:Q16172"" "," ""     Province of Florence"" "," ""wd:Q38"" "," ""     Italy"" "," ""file:////home/fzeri/artchives/records/www.polomusealetoscana.beniculturali.it"" ",  ,  ,  ,  ,  ,  ,  ,  ,  ,  ,  ,  ,  ,  ,  ,  ,  ,  
" ""wd:Q108323065"" "," ""art:1638187830-7530286/"" "," ""Direzione regionale musei della Toscana"" "," ""art:collectionarchive-cesare-brandi"" "," ""Archive Cesare Brandi"" "," ""wd:Q1056780"" "," ""Library: about 5000 units; works of art in the collection: 77 units; movable property: 502 units; correspondence (letters and postcards): 16",000 units approx. arranged in 106 folders; various documents and papers related to the family: 14 folders; various documents and papers related to Villa Brandi (press review, inventories, OA files, administrative deeds): 11 folders; documents and deeds of the work of Cesare Brandi at the Superintendence of Monuments and Galleries of Siena: 1 folder; pen sketches: 1 folder; manuscripts (unpublished writings, drafts, notebooks and notes for publications): 97 folders; photo library: 6446 units approx. arranged in 95 containers, 2 DVDs, 1 pc and 1 hard disk; original supports from the photo library: 15 folders; family photographs: 5 boxes," 1 folder and 1 DVD; slides: 3 boxes."" "," ""Cesare Brandi"" "," ""wd:Q7015"" "," ""     18th century"" "," ""Piazza de' Mozzi"," 2"" "," ""wd:Q2044"" "," ""     Florence"" "," ""wd:Q16172"" "," ""     Province of Florence"" "," ""wd:Q38"" "," ""     Italy"" "," ""file:////home/fzeri/artchives/records/www.polomusealetoscana.beniculturali.it"" ",  ,  ,  ,  ,  ,  ,  ,  ,  ,  ,  ,  ,  ,  ,  ,  ,  ,  
" ""wd:Q108323065"" "," ""art:1638187830-7530286/"" "," ""Direzione regionale musei della Toscana"" "," ""art:collectionarchive-cesare-brandi"" "," ""Archive Cesare Brandi"" "," ""wd:Q1056780"" "," ""Library: about 5000 units; works of art in the collection: 77 units; movable property: 502 units; correspondence (letters and postcards): 16",000 units approx. arranged in 106 folders; various documents and papers related to the family: 14 folders; various documents and papers related to Villa Brandi (press review, inventories, OA files, administrative deeds): 11 folders; documents and deeds of the work of Cesare Brandi at the Superintendence of Monuments and Galleries of Siena: 1 folder; pen sketches: 1 folder; manuscripts (unpublished writings, drafts, notebooks and notes for publications): 97 folders; photo library: 6446 units approx. arranged in 95 containers, 2 DVDs, 1 pc and 1 hard disk; original supports from the photo library: 15 folders; family photographs: 5 boxes," 1 folder and 1 DVD; slides: 3 boxes."" "," ""Cesare Brandi"" "," ""wd:Q6955"" "," ""     19th century"" "," ""Piazza de' Mozzi"," 2"" "," ""wd:Q2044"" "," ""     Florence"" "," ""wd:Q16172"" "," ""     Province of Florence"" "," ""wd:Q38"" "," ""     Italy"" "," ""file:////home/fzeri/artchives/records/www.polomusealetoscana.beniculturali.it"" ",  ,  ,  ,  ,  ,  ,  ,  ,  ,  ,  ,  ,  ,  ,  ,  ,  ,  
" ""wd:Q108323065"" "," ""art:1638187830-7530286/"" "," ""Direzione regionale musei della Toscana"" "," ""art:collectionarchive-cesare-brandi"" "," ""Archive Cesare Brandi"" "," ""wd:Q1056780"" "," ""Library: about 5000 units; works of art in the collection: 77 units; movable property: 502 units; correspondence (letters and postcards): 16",000 units approx. arranged in 106 folders; various documents and papers related to the family: 14 folders; various documents and papers related to Villa Brandi (press review, inventories, OA files, administrative deeds): 11 folders; documents and deeds of the work of Cesare Brandi at the Superintendence of Monuments and Galleries of Siena: 1 folder; pen sketches: 1 folder; manuscripts (unpublished writings, drafts, notebooks and notes for publications): 97 folders; photo library: 6446 units approx. arranged in 95 containers, 2 DVDs, 1 pc and 1 hard disk; original supports from the photo library: 15 folders; family photographs: 5 boxes," 1 folder and 1 DVD; slides: 3 boxes."" "," ""Cesare Brandi"" "," ""wd:Q6927"" "," ""     20th century"" "," ""Piazza de' Mozzi"," 2"" "," ""wd:Q2044"" "," ""     Florence"" "," ""wd:Q16172"" "," ""     Province of Florence"" "," ""wd:Q38"" "," ""     Italy"" "," ""file:////home/fzeri/artchives/records/www.polomusealetoscana.beniculturali.it"" ",  ,  ,  ,  ,  ,  ,  ,  ,  ,  ,  ,  ,  ,  ,  ,  ,  ,  
" ""wd:Q23687322"" "," ""art:1557321703-04/"" "," ""Fondazione Federico Zeri"" "," ""art:collectionfototeca-zeri"" "," ""Fototeca Zeri"" "," ""wd:Q1089074"" "," ""290.000 photographs arrangend in more than 2","000 boxes"" "," ""Federico Zeri"" "," ""wd:Q37853"" "," ""                            Baroque"" "," ""2", Piazzetta Giorgio Morandi," 40125"" "," ""wd:Q1891"" "," "" Bologna"" "," ""wd:Q16139"" "," ""                         Province of Bologna"" "," ""wd:Q38"" "," ""  Italy"" "," ""https://fondazionezeri.unibo.it/en"" ",  ,  ,  ,  ,  ,  ,  ,  ,  ,  ,  ,  ,  ,  ,  ,  ,  ,  ,,,,,,,
" ""wd:Q23687322"" "," ""art:1557321703-04/"" "," ""Fondazione Federico Zeri"" "," ""art:collectionfototeca-zeri"" "," ""Fototeca Zeri"" "," ""wd:Q1089074"" "," ""290.000 photographs arrangend in more than 2","000 boxes"" "," ""Federico Zeri"" "," ""wd:Q7016"" "," ""                            17th century"" "," ""2", Piazzetta Giorgio Morandi," 40125"" "," ""wd:Q1891"" "," "" Bologna"" "," ""wd:Q16139"" "," ""                         Province of Bologna"" "," ""wd:Q38"" "," ""  Italy"" "," ""https://fondazionezeri.unibo.it/en"" ",  ,  ,  ,  ,  ,  ,  ,  ,  ,  ,  ,  ,  ,  ,  ,  ,  ,  ,,,,,,,
" ""wd:Q23687322"" "," ""art:1557321703-04/"" "," ""Fondazione Federico Zeri"" "," ""art:collectionfototeca-zeri"" "," ""Fototeca Zeri"" "," ""wd:Q1089074"" "," ""290.000 photographs arrangend in more than 2","000 boxes"" "," ""Federico Zeri"" "," ""wd:Q4692"" "," ""                            Renaissance"" "," ""2", Piazzetta Giorgio Morandi," 40125"" "," ""wd:Q1891"" "," "" Bologna"" "," ""wd:Q16139"" "," ""                         Province of Bologna"" "," ""wd:Q38"" "," ""  Italy"" "," ""https://fondazionezeri.unibo.it/en"" ",  ,  ,  ,  ,  ,  ,  ,  ,  ,  ,  ,  ,  ,  ,  ,  ,  ,  ,,,,,,,
" ""wd:Q23687322"" "," ""art:1557321703-04/"" "," ""Fondazione Federico Zeri"" "," ""art:collectionfototeca-zeri"" "," ""Fototeca Zeri"" "," ""wd:Q1089074"" "," ""290.000 photographs arrangend in more than 2","000 boxes"" "," ""Federico Zeri"" "," ""wd:Q7018"" "," ""                            15th century"" "," ""2", Piazzetta Giorgio Morandi," 40125"" "," ""wd:Q1891"" "," "" Bologna"" "," ""wd:Q16139"" "," ""                         Province of Bologna"" "," ""wd:Q38"" "," ""  Italy"" "," ""https://fondazionezeri.unibo.it/en"" ",  ,  ,  ,  ,  ,  ,  ,  ,  ,  ,  ,  ,  ,  ,  ,  ,  ,  ,,,,,,,
" ""wd:Q23687322"" "," ""art:1557321703-04/"" "," ""Fondazione Federico Zeri"" "," ""art:collectionfototeca-zeri"" "," ""Fototeca Zeri"" "," ""wd:Q1089074"" "," ""290.000 photographs arrangend in more than 2","000 boxes"" "," ""Federico Zeri"" "," ""wd:Q12554"" "," ""                            Middle Ages"" "," ""2", Piazzetta Giorgio Morandi," 40125"" "," ""wd:Q1891"" "," "" Bologna"" "," ""wd:Q16139"" "," ""                         Province of Bologna"" "," ""wd:Q38"" "," ""  Italy"" "," ""https://fondazionezeri.unibo.it/en"" ",  ,  ,  ,  ,  ,  ,  ,  ,  ,  ,  ,  ,  ,  ,  ,  ,  ,  ,,,,,,,
" ""wd:Q23687322"" "," ""art:1557321703-04/"" "," ""Fondazione Federico Zeri"" "," ""art:collectionfototeca-zeri"" "," ""Fototeca Zeri"" "," ""wd:Q1089074"" "," ""290.000 photographs arrangend in more than 2","000 boxes"" "," ""Federico Zeri"" "," ""wd:Q131808"" "," ""                            mannerism"" "," ""2", Piazzetta Giorgio Morandi," 40125"" "," ""wd:Q1891"" "," "" Bologna"" "," ""wd:Q16139"" "," ""                         Province of Bologna"" "," ""wd:Q38"" "," ""  Italy"" "," ""https://fondazionezeri.unibo.it/en"" ",  ,  ,  ,  ,  ,  ,  ,  ,  ,  ,  ,  ,  ,  ,  ,  ,  ,  ,,,,,,,
" ""wd:Q23687322"" "," ""art:1557321703-04/"" "," ""Fondazione Federico Zeri"" "," ""art:collectionfototeca-zeri"" "," ""Fototeca Zeri"" "," ""wd:Q1089074"" "," ""290.000 photographs arrangend in more than 2","000 boxes"" "," ""Federico Zeri"" "," ""wd:Q7017"" "," ""                            16th century"" "," ""2", Piazzetta Giorgio Morandi," 40125"" "," ""wd:Q1891"" "," "" Bologna"" "," ""wd:Q16139"" "," ""                         Province of Bologna"" "," ""wd:Q38"" "," ""  Italy"" "," ""https://fondazionezeri.unibo.it/en"" ",  ,  ,  ,  ,  ,  ,  ,  ,  ,  ,  ,  ,  ,  ,  ,  ,  ,  ,,,,,,,
" ""wd:Q23687322"" "," ""art:1557321703-04/"" "," ""Fondazione Federico Zeri"" "," ""art:collectionfototeca-zeri"" "," ""Fototeca Zeri"" "," ""wd:Q1089074"" "," ""290.000 photographs arrangend in more than 2","000 boxes"" "," ""Federico Zeri"" "," ""wd:Q37853"" "," ""                            Baroque"" "," ""2", Piazzetta Giorgio Morandi," 40125"" "," ""wd:Q1891"" "," ""Bologna"" "," ""wd:Q16139"" "," ""                         Province of Bologna"" "," ""wd:Q38"" "," ""  Italy"" "," ""https://fondazionezeri.unibo.it/en"" ",  ,  ,  ,  ,  ,  ,  ,  ,  ,  ,  ,  ,  ,  ,  ,  ,  ,  ,,,,,,,
" ""wd:Q23687322"" "," ""art:1557321703-04/"" "," ""Fondazione Federico Zeri"" "," ""art:collectionfototeca-zeri"" "," ""Fototeca Zeri"" "," ""wd:Q1089074"" "," ""290.000 photographs arrangend in more than 2","000 boxes"" "," ""Federico Zeri"" "," ""wd:Q7016"" "," ""                            17th century"" "," ""2", Piazzetta Giorgio Morandi," 40125"" "," ""wd:Q1891"" "," ""Bologna"" "," ""wd:Q16139"" "," ""                         Province of Bologna"" "," ""wd:Q38"" "," ""  Italy"" "," ""https://fondazionezeri.unibo.it/en"" ",  ,  ,  ,  ,  ,  ,  ,  ,  ,  ,  ,  ,  ,  ,  ,  ,  ,  ,,,,,,,
" ""wd:Q23687322"" "," ""art:1557321703-04/"" "," ""Fondazione Federico Zeri"" "," ""art:collectionfototeca-zeri"" "," ""Fototeca Zeri"" "," ""wd:Q1089074"" "," ""290.000 photographs arrangend in more than 2","000 boxes"" "," ""Federico Zeri"" "," ""wd:Q4692"" "," ""                            Renaissance"" "," ""2", Piazzetta Giorgio Morandi," 40125"" "," ""wd:Q1891"" "," ""Bologna"" "," ""wd:Q16139"" "," ""                         Province of Bologna"" "," ""wd:Q38"" "," ""  Italy"" "," ""https://fondazionezeri.unibo.it/en"" ",  ,  ,  ,  ,  ,  ,  ,  ,  ,  ,  ,  ,  ,  ,  ,  ,  ,  ,,,,,,,
" ""wd:Q23687322"" "," ""art:1557321703-04/"" "," ""Fondazione Federico Zeri"" "," ""art:collectionfototeca-zeri"" "," ""Fototeca Zeri"" "," ""wd:Q1089074"" "," ""290.000 photographs arrangend in more than 2","000 boxes"" "," ""Federico Zeri"" "," ""wd:Q7018"" "," ""                            15th century"" "," ""2", Piazzetta Giorgio Morandi," 40125"" "," ""wd:Q1891"" "," ""Bologna"" "," ""wd:Q16139"" "," ""                         Province of Bologna"" "," ""wd:Q38"" "," ""  Italy"" "," ""https://fondazionezeri.unibo.it/en"" ",  ,  ,  ,  ,  ,  ,  ,  ,  ,  ,  ,  ,  ,  ,  ,  ,  ,  ,,,,,,,
" ""wd:Q23687322"" "," ""art:1557321703-04/"" "," ""Fondazione Federico Zeri"" "," ""art:collectionfototeca-zeri"" "," ""Fototeca Zeri"" "," ""wd:Q1089074"" "," ""290.000 photographs arrangend in more than 2","000 boxes"" "," ""Federico Zeri"" "," ""wd:Q12554"" "," ""                            Middle Ages"" "," ""2", Piazzetta Giorgio Morandi," 40125"" "," ""wd:Q1891"" "," ""Bologna"" "," ""wd:Q16139"" "," ""                         Province of Bologna"" "," ""wd:Q38"" "," ""  Italy"" "," ""https://fondazionezeri.unibo.it/en"" ",  ,  ,  ,  ,  ,  ,  ,  ,  ,  ,  ,  ,  ,  ,  ,  ,  ,  ,,,,,,,
" ""wd:Q23687322"" "," ""art:1557321703-04/"" "," ""Fondazione Federico Zeri"" "," ""art:collectionfototeca-zeri"" "," ""Fototeca Zeri"" "," ""wd:Q1089074"" "," ""290.000 photographs arrangend in more than 2","000 boxes"" "," ""Federico Zeri"" "," ""wd:Q131808"" "," ""                            mannerism"" "," ""2", Piazzetta Giorgio Morandi," 40125"" "," ""wd:Q1891"" "," ""Bologna"" "," ""wd:Q16139"" "," ""                         Province of Bologna"" "," ""wd:Q38"" "," ""  Italy"" "," ""https://fondazionezeri.unibo.it/en"" ",  ,  ,  ,  ,  ,  ,  ,  ,  ,  ,  ,  ,  ,  ,  ,  ,  ,  ,,,,,,,
" ""wd:Q23687322"" "," ""art:1557321703-04/"" "," ""Fondazione Federico Zeri"" "," ""art:collectionfototeca-zeri"" "," ""Fototeca Zeri"" "," ""wd:Q1089074"" "," ""290.000 photographs arrangend in more than 2","000 boxes"" "," ""Federico Zeri"" "," ""wd:Q7017"" "," ""                            16th century"" "," ""2", Piazzetta Giorgio Morandi," 40125"" "," ""wd:Q1891"" "," ""Bologna"" "," ""wd:Q16139"" "," ""                         Province of Bologna"" "," ""wd:Q38"" "," ""  Italy"" "," ""https://fondazionezeri.unibo.it/en"" ",  ,  ,  ,  ,  ,  ,  ,  ,  ,  ,  ,  ,  ,  ,  ,  ,  ,  ,,,,,,,
" ""wd:Q23687322"" "," ""art:1557321703-04/"" "," ""Fondazione Federico Zeri"" "," ""art:collectionfototeca-zeri"" "," ""Fototeca Zeri"" "," ""wd:Q1089074"" "," ""290.000 photographs arrangend in more than 2","000 boxes"" "," ""Federico Zeri"" "," ""wd:Q37853"" "," ""                            Baroque"" "," ""2", Piazzetta Giorgio Morandi," 40125"" "," ""wd:Q1891"" "," "" Bologna"" "," ""wd:Q16139"" "," ""                         Province of Bologna"" "," ""wd:Q38"" "," ""   Italy"" "," ""https://fondazionezeri.unibo.it/en"" ",  ,  ,  ,  ,  ,  ,  ,  ,  ,  ,  ,  ,  ,  ,  ,  ,  ,  ,,,,,,,
" ""wd:Q23687322"" "," ""art:1557321703-04/"" "," ""Fondazione Federico Zeri"" "," ""art:collectionfototeca-zeri"" "," ""Fototeca Zeri"" "," ""wd:Q1089074"" "," ""290.000 photographs arrangend in more than 2","000 boxes"" "," ""Federico Zeri"" "," ""wd:Q7016"" "," ""                            17th century"" "," ""2", Piazzetta Giorgio Morandi," 40125"" "," ""wd:Q1891"" "," "" Bologna"" "," ""wd:Q16139"" "," ""                         Province of Bologna"" "," ""wd:Q38"" "," ""   Italy"" "," ""https://fondazionezeri.unibo.it/en"" ",  ,  ,  ,  ,  ,  ,  ,  ,  ,  ,  ,  ,  ,  ,  ,  ,  ,  ,,,,,,,
" ""wd:Q23687322"" "," ""art:1557321703-04/"" "," ""Fondazione Federico Zeri"" "," ""art:collectionfototeca-zeri"" "," ""Fototeca Zeri"" "," ""wd:Q1089074"" "," ""290.000 photographs arrangend in more than 2","000 boxes"" "," ""Federico Zeri"" "," ""wd:Q4692"" "," ""                            Renaissance"" "," ""2", Piazzetta Giorgio Morandi," 40125"" "," ""wd:Q1891"" "," "" Bologna"" "," ""wd:Q16139"" "," ""                         Province of Bologna"" "," ""wd:Q38"" "," ""   Italy"" "," ""https://fondazionezeri.unibo.it/en"" ",  ,  ,  ,  ,  ,  ,  ,  ,  ,  ,  ,  ,  ,  ,  ,  ,  ,  ,,,,,,,
" ""wd:Q23687322"" "," ""art:1557321703-04/"" "," ""Fondazione Federico Zeri"" "," ""art:collectionfototeca-zeri"" "," ""Fototeca Zeri"" "," ""wd:Q1089074"" "," ""290.000 photographs arrangend in more than 2","000 boxes"" "," ""Federico Zeri"" "," ""wd:Q7018"" "," ""                            15th century"" "," ""2", Piazzetta Giorgio Morandi," 40125"" "," ""wd:Q1891"" "," "" Bologna"" "," ""wd:Q16139"" "," ""                         Province of Bologna"" "," ""wd:Q38"" "," ""   Italy"" "," ""https://fondazionezeri.unibo.it/en"" ",  ,  ,  ,  ,  ,  ,  ,  ,  ,  ,  ,  ,  ,  ,  ,  ,  ,  ,,,,,,,
" ""wd:Q23687322"" "," ""art:1557321703-04/"" "," ""Fondazione Federico Zeri"" "," ""art:collectionfototeca-zeri"" "," ""Fototeca Zeri"" "," ""wd:Q1089074"" "," ""290.000 photographs arrangend in more than 2","000 boxes"" "," ""Federico Zeri"" "," ""wd:Q12554"" "," ""                            Middle Ages"" "," ""2", Piazzetta Giorgio Morandi," 40125"" "," ""wd:Q1891"" "," "" Bologna"" "," ""wd:Q16139"" "," ""                         Province of Bologna"" "," ""wd:Q38"" "," ""   Italy"" "," ""https://fondazionezeri.unibo.it/en"" ",  ,  ,  ,  ,  ,  ,  ,  ,  ,  ,  ,  ,  ,  ,  ,  ,  ,  ,,,,,,,
" ""wd:Q23687322"" "," ""art:1557321703-04/"" "," ""Fondazione Federico Zeri"" "," ""art:collectionfototeca-zeri"" "," ""Fototeca Zeri"" "," ""wd:Q1089074"" "," ""290.000 photographs arrangend in more than 2","000 boxes"" "," ""Federico Zeri"" "," ""wd:Q131808"" "," ""                            mannerism"" "," ""2", Piazzetta Giorgio Morandi," 40125"" "," ""wd:Q1891"" "," "" Bologna"" "," ""wd:Q16139"" "," ""                         Province of Bologna"" "," ""wd:Q38"" "," ""   Italy"" "," ""https://fondazionezeri.unibo.it/en"" ",  ,  ,  ,  ,  ,  ,  ,  ,  ,  ,  ,  ,  ,  ,  ,  ,  ,  ,,,,,,,
" ""wd:Q23687322"" "," ""art:1557321703-04/"" "," ""Fondazione Federico Zeri"" "," ""art:collectionfototeca-zeri"" "," ""Fototeca Zeri"" "," ""wd:Q1089074"" "," ""290.000 photographs arrangend in more than 2","000 boxes"" "," ""Federico Zeri"" "," ""wd:Q7017"" "," ""                            16th century"" "," ""2", Piazzetta Giorgio Morandi," 40125"" "," ""wd:Q1891"" "," "" Bologna"" "," ""wd:Q16139"" "," ""                         Province of Bologna"" "," ""wd:Q38"" "," ""   Italy"" "," ""https://fondazionezeri.unibo.it/en"" ",  ,  ,  ,  ,  ,  ,  ,  ,  ,  ,  ,  ,  ,  ,  ,  ,  ,  ,,,,,,,
" ""wd:Q23687322"" "," ""art:1557321703-04/"" "," ""Fondazione Federico Zeri"" "," ""art:collectionfototeca-zeri"" "," ""Fototeca Zeri"" "," ""wd:Q1089074"" "," ""290.000 photographs arrangend in more than 2","000 boxes"" "," ""Federico Zeri"" "," ""wd:Q37853"" "," ""                            Baroque"" "," ""2", Piazzetta Giorgio Morandi," 40125"" "," ""wd:Q1891"" "," ""Bologna"" "," ""wd:Q16139"" "," ""                         Province of Bologna"" "," ""wd:Q38"" "," ""   Italy"" "," ""https://fondazionezeri.unibo.it/en"" ",  ,  ,  ,  ,  ,  ,  ,  ,  ,  ,  ,  ,  ,  ,  ,  ,  ,  ,,,,,,,
" ""wd:Q23687322"" "," ""art:1557321703-04/"" "," ""Fondazione Federico Zeri"" "," ""art:collectionfototeca-zeri"" "," ""Fototeca Zeri"" "," ""wd:Q1089074"" "," ""290.000 photographs arrangend in more than 2","000 boxes"" "," ""Federico Zeri"" "," ""wd:Q7016"" "," ""                            17th century"" "," ""2", Piazzetta Giorgio Morandi," 40125"" "," ""wd:Q1891"" "," ""Bologna"" "," ""wd:Q16139"" "," ""                         Province of Bologna"" "," ""wd:Q38"" "," ""   Italy"" "," ""https://fondazionezeri.unibo.it/en"" ",  ,  ,  ,  ,  ,  ,  ,  ,  ,  ,  ,  ,  ,  ,  ,  ,  ,  ,,,,,,,
" ""wd:Q23687322"" "," ""art:1557321703-04/"" "," ""Fondazione Federico Zeri"" "," ""art:collectionfototeca-zeri"" "," ""Fototeca Zeri"" "," ""wd:Q1089074"" "," ""290.000 photographs arrangend in more than 2","000 boxes"" "," ""Federico Zeri"" "," ""wd:Q4692"" "," ""                            Renaissance"" "," ""2", Piazzetta Giorgio Morandi," 40125"" "," ""wd:Q1891"" "," ""Bologna"" "," ""wd:Q16139"" "," ""                         Province of Bologna"" "," ""wd:Q38"" "," ""   Italy"" "," ""https://fondazionezeri.unibo.it/en"" ",  ,  ,  ,  ,  ,  ,  ,  ,  ,  ,  ,  ,  ,  ,  ,  ,  ,  ,,,,,,,
" ""wd:Q23687322"" "," ""art:1557321703-04/"" "," ""Fondazione Federico Zeri"" "," ""art:collectionfototeca-zeri"" "," ""Fototeca Zeri"" "," ""wd:Q1089074"" "," ""290.000 photographs arrangend in more than 2","000 boxes"" "," ""Federico Zeri"" "," ""wd:Q7018"" "," ""                            15th century"" "," ""2", Piazzetta Giorgio Morandi," 40125"" "," ""wd:Q1891"" "," ""Bologna"" "," ""wd:Q16139"" "," ""                         Province of Bologna"" "," ""wd:Q38"" "," ""   Italy"" "," ""https://fondazionezeri.unibo.it/en"" ",  ,  ,  ,  ,  ,  ,  ,  ,  ,  ,  ,  ,  ,  ,  ,  ,  ,  ,,,,,,,
" ""wd:Q23687322"" "," ""art:1557321703-04/"" "," ""Fondazione Federico Zeri"" "," ""art:collectionfototeca-zeri"" "," ""Fototeca Zeri"" "," ""wd:Q1089074"" "," ""290.000 photographs arrangend in more than 2","000 boxes"" "," ""Federico Zeri"" "," ""wd:Q12554"" "," ""                            Middle Ages"" "," ""2", Piazzetta Giorgio Morandi," 40125"" "," ""wd:Q1891"" "," ""Bologna"" "," ""wd:Q16139"" "," ""                         Province of Bologna"" "," ""wd:Q38"" "," ""   Italy"" "," ""https://fondazionezeri.unibo.it/en"" ",  ,  ,  ,  ,  ,  ,  ,  ,  ,  ,  ,  ,  ,  ,  ,  ,  ,  ,,,,,,,
" ""wd:Q23687322"" "," ""art:1557321703-04/"" "," ""Fondazione Federico Zeri"" "," ""art:collectionfototeca-zeri"" "," ""Fototeca Zeri"" "," ""wd:Q1089074"" "," ""290.000 photographs arrangend in more than 2","000 boxes"" "," ""Federico Zeri"" "," ""wd:Q131808"" "," ""                            mannerism"" "," ""2", Piazzetta Giorgio Morandi," 40125"" "," ""wd:Q1891"" "," ""Bologna"" "," ""wd:Q16139"" "," ""                         Province of Bologna"" "," ""wd:Q38"" "," ""   Italy"" "," ""https://fondazionezeri.unibo.it/en"" ",  ,  ,  ,  ,  ,  ,  ,  ,  ,  ,  ,  ,  ,  ,  ,  ,  ,  ,,,,,,,
" ""wd:Q23687322"" "," ""art:1557321703-04/"" "," ""Fondazione Federico Zeri"" "," ""art:collectionfototeca-zeri"" "," ""Fototeca Zeri"" "," ""wd:Q1089074"" "," ""290.000 photographs arrangend in more than 2","000 boxes"" "," ""Federico Zeri"" "," ""wd:Q7017"" "," ""                            16th century"" "," ""2", Piazzetta Giorgio Morandi," 40125"" "," ""wd:Q1891"" "," ""Bologna"" "," ""wd:Q16139"" "," ""                         Province of Bologna"" "," ""wd:Q38"" "," ""   Italy"" "," ""https://fondazionezeri.unibo.it/en"" ",  ,  ,  ,  ,  ,  ,  ,  ,  ,  ,  ,  ,  ,  ,  ,  ,  ,  ,,,,,,,
" ""wd:Q23687322"" "," ""art:1557321703-04/"" "," ""Fondazione Federico Zeri"" "," ""art:collectionfototeca-zeri"" "," ""Fototeca Zeri"" "," ""wd:Q1089074"" "," ""290.000 photographs arrangend in more than 2","000 boxes"" "," ""Federico Zeri"" "," ""wd:Q37853"" "," ""                            Baroque"" "," ""2", Piazzetta Giorgio Morandi," 40125"" "," ""wd:Q1891"" "," "" Bologna"" "," ""wd:Q16139"" "," ""                         Province of Bologna"" "," ""wd:Q38"" "," ""Italy"" "," ""https://fondazionezeri.unibo.it/en"" ",  ,  ,  ,  ,  ,  ,  ,  ,  ,  ,  ,  ,  ,  ,  ,  ,  ,  ,,,,,,,
" ""wd:Q23687322"" "," ""art:1557321703-04/"" "," ""Fondazione Federico Zeri"" "," ""art:collectionfototeca-zeri"" "," ""Fototeca Zeri"" "," ""wd:Q1089074"" "," ""290.000 photographs arrangend in more than 2","000 boxes"" "," ""Federico Zeri"" "," ""wd:Q7016"" "," ""                            17th century"" "," ""2", Piazzetta Giorgio Morandi," 40125"" "," ""wd:Q1891"" "," "" Bologna"" "," ""wd:Q16139"" "," ""                         Province of Bologna"" "," ""wd:Q38"" "," ""Italy"" "," ""https://fondazionezeri.unibo.it/en"" ",  ,  ,  ,  ,  ,  ,  ,  ,  ,  ,  ,  ,  ,  ,  ,  ,  ,  ,,,,,,,
" ""wd:Q23687322"" "," ""art:1557321703-04/"" "," ""Fondazione Federico Zeri"" "," ""art:collectionfototeca-zeri"" "," ""Fototeca Zeri"" "," ""wd:Q1089074"" "," ""290.000 photographs arrangend in more than 2","000 boxes"" "," ""Federico Zeri"" "," ""wd:Q4692"" "," ""                            Renaissance"" "," ""2", Piazzetta Giorgio Morandi," 40125"" "," ""wd:Q1891"" "," "" Bologna"" "," ""wd:Q16139"" "," ""                         Province of Bologna"" "," ""wd:Q38"" "," ""Italy"" "," ""https://fondazionezeri.unibo.it/en"" ",  ,  ,  ,  ,  ,  ,  ,  ,  ,  ,  ,  ,  ,  ,  ,  ,  ,  ,,,,,,,
" ""wd:Q23687322"" "," ""art:1557321703-04/"" "," ""Fondazione Federico Zeri"" "," ""art:collectionfototeca-zeri"" "," ""Fototeca Zeri"" "," ""wd:Q1089074"" "," ""290.000 photographs arrangend in more than 2","000 boxes"" "," ""Federico Zeri"" "," ""wd:Q7018"" "," ""                            15th century"" "," ""2", Piazzetta Giorgio Morandi," 40125"" "," ""wd:Q1891"" "," "" Bologna"" "," ""wd:Q16139"" "," ""                         Province of Bologna"" "," ""wd:Q38"" "," ""Italy"" "," ""https://fondazionezeri.unibo.it/en"" ",  ,  ,  ,  ,  ,  ,  ,  ,  ,  ,  ,  ,  ,  ,  ,  ,  ,  ,,,,,,,
" ""wd:Q23687322"" "," ""art:1557321703-04/"" "," ""Fondazione Federico Zeri"" "," ""art:collectionfototeca-zeri"" "," ""Fototeca Zeri"" "," ""wd:Q1089074"" "," ""290.000 photographs arrangend in more than 2","000 boxes"" "," ""Federico Zeri"" "," ""wd:Q12554"" "," ""                            Middle Ages"" "," ""2", Piazzetta Giorgio Morandi," 40125"" "," ""wd:Q1891"" "," "" Bologna"" "," ""wd:Q16139"" "," ""                         Province of Bologna"" "," ""wd:Q38"" "," ""Italy"" "," ""https://fondazionezeri.unibo.it/en"" ",  ,  ,  ,  ,  ,  ,  ,  ,  ,  ,  ,  ,  ,  ,  ,  ,  ,  ,,,,,,,
" ""wd:Q23687322"" "," ""art:1557321703-04/"" "," ""Fondazione Federico Zeri"" "," ""art:collectionfototeca-zeri"" "," ""Fototeca Zeri"" "," ""wd:Q1089074"" "," ""290.000 photographs arrangend in more than 2","000 boxes"" "," ""Federico Zeri"" "," ""wd:Q131808"" "," ""                            mannerism"" "," ""2", Piazzetta Giorgio Morandi," 40125"" "," ""wd:Q1891"" "," "" Bologna"" "," ""wd:Q16139"" "," ""                         Province of Bologna"" "," ""wd:Q38"" "," ""Italy"" "," ""https://fondazionezeri.unibo.it/en"" ",  ,  ,  ,  ,  ,  ,  ,  ,  ,  ,  ,  ,  ,  ,  ,  ,  ,  ,,,,,,,
" ""wd:Q23687322"" "," ""art:1557321703-04/"" "," ""Fondazione Federico Zeri"" "," ""art:collectionfototeca-zeri"" "," ""Fototeca Zeri"" "," ""wd:Q1089074"" "," ""290.000 photographs arrangend in more than 2","000 boxes"" "," ""Federico Zeri"" "," ""wd:Q7017"" "," ""                            16th century"" "," ""2", Piazzetta Giorgio Morandi," 40125"" "," ""wd:Q1891"" "," "" Bologna"" "," ""wd:Q16139"" "," ""                         Province of Bologna"" "," ""wd:Q38"" "," ""Italy"" "," ""https://fondazionezeri.unibo.it/en"" ",  ,  ,  ,  ,  ,  ,  ,  ,  ,  ,  ,  ,  ,  ,  ,  ,  ,  ,,,,,,,
" ""wd:Q23687322"" "," ""art:1557321703-04/"" "," ""Fondazione Federico Zeri"" "," ""art:collectionfototeca-zeri"" "," ""Fototeca Zeri"" "," ""wd:Q1089074"" "," ""290.000 photographs arrangend in more than 2","000 boxes"" "," ""Federico Zeri"" "," ""wd:Q37853"" "," ""                            Baroque"" "," ""2", Piazzetta Giorgio Morandi," 40125"" "," ""wd:Q1891"" "," ""Bologna"" "," ""wd:Q16139"" "," ""                         Province of Bologna"" "," ""wd:Q38"" "," ""Italy"" "," ""https://fondazionezeri.unibo.it/en"" ",  ,  ,  ,  ,  ,  ,  ,  ,  ,  ,  ,  ,  ,  ,  ,  ,  ,  ,,,,,,,
" ""wd:Q23687322"" "," ""art:1557321703-04/"" "," ""Fondazione Federico Zeri"" "," ""art:collectionfototeca-zeri"" "," ""Fototeca Zeri"" "," ""wd:Q1089074"" "," ""290.000 photographs arrangend in more than 2","000 boxes"" "," ""Federico Zeri"" "," ""wd:Q7016"" "," ""                            17th century"" "," ""2", Piazzetta Giorgio Morandi," 40125"" "," ""wd:Q1891"" "," ""Bologna"" "," ""wd:Q16139"" "," ""                         Province of Bologna"" "," ""wd:Q38"" "," ""Italy"" "," ""https://fondazionezeri.unibo.it/en"" ",  ,  ,  ,  ,  ,  ,  ,  ,  ,  ,  ,  ,  ,  ,  ,  ,  ,  ,,,,,,,
" ""wd:Q23687322"" "," ""art:1557321703-04/"" "," ""Fondazione Federico Zeri"" "," ""art:collectionfototeca-zeri"" "," ""Fototeca Zeri"" "," ""wd:Q1089074"" "," ""290.000 photographs arrangend in more than 2","000 boxes"" "," ""Federico Zeri"" "," ""wd:Q4692"" "," ""                            Renaissance"" "," ""2", Piazzetta Giorgio Morandi," 40125"" "," ""wd:Q1891"" "," ""Bologna"" "," ""wd:Q16139"" "," ""                         Province of Bologna"" "," ""wd:Q38"" "," ""Italy"" "," ""https://fondazionezeri.unibo.it/en"" ",  ,  ,  ,  ,  ,  ,  ,  ,  ,  ,  ,  ,  ,  ,  ,  ,  ,  ,,,,,,,
" ""wd:Q23687322"" "," ""art:1557321703-04/"" "," ""Fondazione Federico Zeri"" "," ""art:collectionfototeca-zeri"" "," ""Fototeca Zeri"" "," ""wd:Q1089074"" "," ""290.000 photographs arrangend in more than 2","000 boxes"" "," ""Federico Zeri"" "," ""wd:Q7018"" "," ""                            15th century"" "," ""2", Piazzetta Giorgio Morandi," 40125"" "," ""wd:Q1891"" "," ""Bologna"" "," ""wd:Q16139"" "," ""                         Province of Bologna"" "," ""wd:Q38"" "," ""Italy"" "," ""https://fondazionezeri.unibo.it/en"" ",  ,  ,  ,  ,  ,  ,  ,  ,  ,  ,  ,  ,  ,  ,  ,  ,  ,  ,,,,,,,
" ""wd:Q23687322"" "," ""art:1557321703-04/"" "," ""Fondazione Federico Zeri"" "," ""art:collectionfototeca-zeri"" "," ""Fototeca Zeri"" "," ""wd:Q1089074"" "," ""290.000 photographs arrangend in more than 2","000 boxes"" "," ""Federico Zeri"" "," ""wd:Q12554"" "," ""                            Middle Ages"" "," ""2", Piazzetta Giorgio Morandi," 40125"" "," ""wd:Q1891"" "," ""Bologna"" "," ""wd:Q16139"" "," ""                         Province of Bologna"" "," ""wd:Q38"" "," ""Italy"" "," ""https://fondazionezeri.unibo.it/en"" ",  ,  ,  ,  ,  ,  ,  ,  ,  ,  ,  ,  ,  ,  ,  ,  ,  ,  ,,,,,,,
" ""wd:Q23687322"" "," ""art:1557321703-04/"" "," ""Fondazione Federico Zeri"" "," ""art:collectionfototeca-zeri"" "," ""Fototeca Zeri"" "," ""wd:Q1089074"" "," ""290.000 photographs arrangend in more than 2","000 boxes"" "," ""Federico Zeri"" "," ""wd:Q131808"" "," ""                            mannerism"" "," ""2", Piazzetta Giorgio Morandi," 40125"" "," ""wd:Q1891"" "," ""Bologna"" "," ""wd:Q16139"" "," ""                         Province of Bologna"" "," ""wd:Q38"" "," ""Italy"" "," ""https://fondazionezeri.unibo.it/en"" ",  ,  ,  ,  ,  ,  ,  ,  ,  ,  ,  ,  ,  ,  ,  ,  ,  ,  ,,,,,,,
" ""wd:Q23687322"" "," ""art:1557321703-04/"" "," ""Fondazione Federico Zeri"" "," ""art:collectionfototeca-zeri"" "," ""Fototeca Zeri"" "," ""wd:Q1089074"" "," ""290.000 photographs arrangend in more than 2","000 boxes"" "," ""Federico Zeri"" "," ""wd:Q7017"" "," ""                            16th century"" "," ""2", Piazzetta Giorgio Morandi," 40125"" "," ""wd:Q1891"" "," ""Bologna"" "," ""wd:Q16139"" "," ""                         Province of Bologna"" "," ""wd:Q38"" "," ""Italy"" "," ""https://fondazionezeri.unibo.it/en"" ",  ,  ,  ,  ,  ,  ,  ,  ,  ,  ,  ,  ,  ,  ,  ,  ,  ,  ,,,,,,,
" ""wd:Q872398"" "," ""art:1559131492-23/"" "," ""Kunsthistorisches Institut in Florenz"" "," ""art:collectiongustav-ludwigvermachtnis"" "," ""Gustav Ludwig-VermÃ¤chtnis"" "," ""wd:Q41616785"" "," ""77 boxes; 25561 items"" "," ""Gustav Ludwig"" "," ""wd:Q7018"" "," ""        15th century"" "," ""Via Giuseppe Giusti 44"," 50121"" "," ""wd:Q2044"" "," ""                  Florence"" "," ""wd:Q16172"" "," ""                  Province of Florence"" "," ""art:MD1559652371596"" "," ""           Italy"" "," ""http://www.khi.fi.it"" ",  ,  ,  ,  ,  ,  ,  ,  ,  ,  ,  ,  ,  ,  ,  ,  ,  ,  ,,,,,,,,,
" ""wd:Q872398"" "," ""art:1559131492-23/"" "," "" Kunsthistorisches Institut in Florenz"" "," ""art:collectiongustav-ludwigvermachtnis"" "," ""Gustav Ludwig-VermÃ¤chtnis"" "," ""wd:Q41616785"" "," ""77 boxes; 25561 items"" "," ""Gustav Ludwig"" "," ""wd:Q7018"" "," ""        15th century"" "," ""Via Giuseppe Giusti 44"," 50121"" "," ""wd:Q2044"" "," ""                  Florence"" "," ""wd:Q16172"" "," ""                  Province of Florence"" "," ""art:MD1559652371596"" "," ""           Italy"" "," ""http://www.khi.fi.it"" ",  ,  ,  ,  ,  ,  ,  ,  ,  ,  ,  ,  ,  ,  ,  ,  ,  ,  ,,,,,,,,,
" ""wd:Q872398"" "," ""art:1559131492-23/"" "," ""        Kunsthistorisches Institut in Florenz"" "," ""art:collectiongustav-ludwigvermachtnis"" "," ""Gustav Ludwig-VermÃ¤chtnis"" "," ""wd:Q41616785"" "," ""77 boxes; 25561 items"" "," ""Gustav Ludwig"" "," ""wd:Q7018"" "," ""        15th century"" "," ""Via Giuseppe Giusti 44"," 50121"" "," ""wd:Q2044"" "," ""                  Florence"" "," ""wd:Q16172"" "," ""                  Province of Florence"" "," ""art:MD1559652371596"" "," ""           Italy"" "," ""http://www.khi.fi.it"" ",  ,  ,  ,  ,  ,  ,  ,  ,  ,  ,  ,  ,  ,  ,  ,  ,  ,  ,,,,,,,,,
" ""wd:Q872398"" "," ""art:1559131492-23/"" "," ""Kunsthistorisches Institut in Florenz"" "," ""art:collectiongustav-ludwigvermachtnis"" "," ""Gustav Ludwig-VermÃ¤chtnis"" "," ""wd:Q41616785"" "," ""77 boxes; 25561 items"" "," ""Gustav Ludwig"" "," ""wd:Q7017"" "," ""        16th century"" "," ""Via Giuseppe Giusti 44"," 50121"" "," ""wd:Q2044"" "," ""                  Florence"" "," ""wd:Q16172"" "," ""                  Province of Florence"" "," ""art:MD1559652371596"" "," ""           Italy"" "," ""http://www.khi.fi.it"" ",  ,  ,  ,  ,  ,  ,  ,  ,  ,  ,  ,  ,  ,  ,  ,  ,  ,  ,,,,,,,,,
" ""wd:Q872398"" "," ""art:1559131492-23/"" "," "" Kunsthistorisches Institut in Florenz"" "," ""art:collectiongustav-ludwigvermachtnis"" "," ""Gustav Ludwig-VermÃ¤chtnis"" "," ""wd:Q41616785"" "," ""77 boxes; 25561 items"" "," ""Gustav Ludwig"" "," ""wd:Q7017"" "," ""        16th century"" "," ""Via Giuseppe Giusti 44"," 50121"" "," ""wd:Q2044"" "," ""                  Florence"" "," ""wd:Q16172"" "," ""                  Province of Florence"" "," ""art:MD1559652371596"" "," ""           Italy"" "," ""http://www.khi.fi.it"" ",  ,  ,  ,  ,  ,  ,  ,  ,  ,  ,  ,  ,  ,  ,  ,  ,  ,  ,,,,,,,,,
" ""wd:Q872398"" "," ""art:1559131492-23/"" "," ""        Kunsthistorisches Institut in Florenz"" "," ""art:collectiongustav-ludwigvermachtnis"" "," ""Gustav Ludwig-VermÃ¤chtnis"" "," ""wd:Q41616785"" "," ""77 boxes; 25561 items"" "," ""Gustav Ludwig"" "," ""wd:Q7017"" "," ""        16th century"" "," ""Via Giuseppe Giusti 44"," 50121"" "," ""wd:Q2044"" "," ""                  Florence"" "," ""wd:Q16172"" "," ""                  Province of Florence"" "," ""art:MD1559652371596"" "," ""           Italy"" "," ""http://www.khi.fi.it"" ",  ,  ,  ,  ,  ,  ,  ,  ,  ,  ,  ,  ,  ,  ,  ,  ,  ,  ,,,,,,,,,
" ""wd:Q872398"" "," ""art:1559134510-33/"" "," ""Kunsthistorisches Institut in Florenz"" "," ""art:collectionnachlass-ulrich-middeldorf"" "," ""Nachlass Ulrich Middeldorf"" "," ""wd:Q1715096"" "," ""22 boxes 39x27",5x11,3 cm; 1 box 25x21x14,5 cm; 14838 items,,,,,,,,,,,,,,,,,,,,,,,,,,,,,,,,,,,,
,,,,,,,,,,,,,,,,,,,,,,,,,,,,,,,,,,,,,,,,,,,,,
" , Ulrich Middeldorf"" "," ""wd:Q8683"" "," ""           Cold War"" "," ""Via Giuseppe Giusti 44"," 50121"" "," ""wd:Q2044"" "," ""Florence"" "," ""art:MD1559137221829"" "," ""                                 province Florence"" "," ""art:MD1559137219813"" "," ""                                 Italy"" ", Â  ,  ,  ,  ,  ,  ,  ,  ,  ,  ,  ,  ,  ,  ,  ,  ,  ,  ,  ,,,,,,,,,,,,,,,,
" ""wd:Q872398"" "," ""art:1559134510-33/"" "," ""           Kunsthistorisches Institut in Florenz"" "," ""art:collectionnachlass-ulrich-middeldorf"" "," ""Nachlass Ulrich Middeldorf"" "," ""wd:Q1715096"" "," ""22 boxes 39x27",5x11,3 cm; 1 box 25x21x14,5 cm; 14838 items,,,,,,,,,,,,,,,,,,,,,,,,,,,,,,,,,,,,
,,,,,,,,,,,,,,,,,,,,,,,,,,,,,,,,,,,,,,,,,,,,,
" , Ulrich Middeldorf"" "," ""wd:Q8683"" "," ""           Cold War"" "," ""Via Giuseppe Giusti 44"," 50121"" "," ""wd:Q2044"" "," ""Florence"" "," ""art:MD1559137221829"" "," ""                                 province Florence"" "," ""art:MD1559137219813"" "," ""                                 Italy"" ", Â  ,  ,  ,  ,  ,  ,  ,  ,  ,  ,  ,  ,  ,  ,  ,  ,  ,  ,  ,,,,,,,,,,,,,,,,
" ""wd:Q872398"" "," ""art:1559134510-33/"" "," ""Kunsthistorisches Institut in Florenz"" "," ""art:collectionnachlass-ulrich-middeldorf"" "," ""Nachlass Ulrich Middeldorf"" "," ""wd:Q1715096"" "," ""22 boxes 39x27",5x11,3 cm; 1 box 25x21x14,5 cm; 14838 items,,,,,,,,,,,,,,,,,,,,,,,,,,,,,,,,,,,,
,,,,,,,,,,,,,,,,,,,,,,,,,,,,,,,,,,,,,,,,,,,,,
" , Ulrich Middeldorf"" "," ""wd:Q8683"" "," ""           Cold War"" "," ""Via Giuseppe Giusti 44"," 50121"" "," ""wd:Q2044"" "," ""                           Florence"" "," ""art:MD1559137221829"" "," ""                                 province Florence"" "," ""art:MD1559137219813"" "," ""                                 Italy"" ", Â  ,  ,  ,  ,  ,  ,  ,  ,  ,  ,  ,  ,  ,  ,  ,  ,  ,  ,  ,,,,,,,,,,,,,,,,
" ""wd:Q872398"" "," ""art:1559134510-33/"" "," ""           Kunsthistorisches Institut in Florenz"" "," ""art:collectionnachlass-ulrich-middeldorf"" "," ""Nachlass Ulrich Middeldorf"" "," ""wd:Q1715096"" "," ""22 boxes 39x27",5x11,3 cm; 1 box 25x21x14,5 cm; 14838 items,,,,,,,,,,,,,,,,,,,,,,,,,,,,,,,,,,,,
,,,,,,,,,,,,,,,,,,,,,,,,,,,,,,,,,,,,,,,,,,,,,
" , Ulrich Middeldorf"" "," ""wd:Q8683"" "," ""           Cold War"" "," ""Via Giuseppe Giusti 44"," 50121"" "," ""wd:Q2044"" "," ""                           Florence"" "," ""art:MD1559137221829"" "," ""                                 province Florence"" "," ""art:MD1559137219813"" "," ""                                 Italy"" ", Â  ,  ,  ,  ,  ,  ,  ,  ,  ,  ,  ,  ,  ,  ,  ,  ,  ,  ,  ,,,,,,,,,,,,,,,,
" ""wd:Q339759"" "," ""art:1559563361-99/"" "," ""Bibliotheca Hertziana %u2013 Max Planck Institute of Art History"" "," ""art:collectionnachlass-ernst-steinmann"" "," ""Nachlass Ernst Steinmann"" "," ""wd:Q3057287"" "," ""43 boxes",,,,,,,,,,,,,,,,,,,,,,,,,,,,,,,,,,,,,,,
,,,,,,,,,,,,,,,,,,,,,,,,,,,,,,,,,,,,,,,,,,,,,
" , Ernst Steinmann"" "," ""wd:Q4692"" "," ""                Renaissance"" "," ""Via Gregoriana 28"" "," ""art:MD1559568315600"" "," ""                Rome"" "," ""wd:Q15119"" "," ""        Province of Rome"" "," ""art:MD1559568318479"" "," ""                Italy"" "," ""http://www.biblhertz.it/en/home"" ",  ,  ,  ,  ,  ,  ,  ,  ,  ,  ,  ,  ,  ,  ,  ,  ,  ,  ,,,,,,,,,,,,,,,,,
" ""wd:Q339759"" "," ""art:1559563361-99/"" "," ""                Bibliotheca Hertziana %u2013 Max Planck Institute of Art History"" "," ""art:collectionnachlass-ernst-steinmann"" "," ""Nachlass Ernst Steinmann"" "," ""wd:Q3057287"" "," ""43 boxes",,,,,,,,,,,,,,,,,,,,,,,,,,,,,,,,,,,,,,,
,,,,,,,,,,,,,,,,,,,,,,,,,,,,,,,,,,,,,,,,,,,,,
" , Ernst Steinmann"" "," ""wd:Q4692"" "," ""                Renaissance"" "," ""Via Gregoriana 28"" "," ""art:MD1559568315600"" "," ""                Rome"" "," ""wd:Q15119"" "," ""        Province of Rome"" "," ""art:MD1559568318479"" "," ""                Italy"" "," ""http://www.biblhertz.it/en/home"" ",  ,  ,  ,  ,  ,  ,  ,  ,  ,  ,  ,  ,  ,  ,  ,  ,  ,  ,,,,,,,,,,,,,,,,,
" ""wd:Q11203476"" "," ""art:1559595129-89/"" "," ""Getty Research Institute"" "," ""art:collectionjulius-s-held-papers"" "," ""Julius S. Held papers"" "," ""wd:Q1712683"" "," ""168 boxes (ca. 70 lin. ft.)"" "," ""Julius S. Held"" "," ""wd:Q7016"" "," ""               17th century"" "," ""1200"," Getty Center Drive"" "," ""wd:Q65"" "," ""               Los Angeles"" "," ""wd:Q99"" "," ""               California"" "," ""wd:Q30"" "," ""               United States of America"" "," ""http://www.getty.edu/research/"" ",  ,  ,  ,  ,  ,  ,  ,  ,  ,  ,  ,  ,  ,  ,  ,  ,  ,  ,,,,,,,,,
" ""wd:Q11203476"" "," ""art:1559595129-89/"" "," ""               Getty Research Institute"" "," ""art:collectionjulius-s-held-papers"" "," ""Julius S. Held papers"" "," ""wd:Q1712683"" "," ""168 boxes (ca. 70 lin. ft.)"" "," ""Julius S. Held"" "," ""wd:Q7016"" "," ""               17th century"" "," ""1200"," Getty Center Drive"" "," ""wd:Q65"" "," ""               Los Angeles"" "," ""wd:Q99"" "," ""               California"" "," ""wd:Q30"" "," ""               United States of America"" "," ""http://www.getty.edu/research/"" ",  ,  ,  ,  ,  ,  ,  ,  ,  ,  ,  ,  ,  ,  ,  ,  ,  ,  ,,,,,,,,,
" ""wd:Q11203476"" "," ""art:1559595129-89/"" "," ""Getty Research Institute"" "," ""art:collectionjulius-s-held-papers"" "," ""Julius S. Held papers"" "," ""wd:Q1712683"" "," ""168 boxes (ca. 70 lin. ft.)"" "," ""Julius S. Held"" "," ""wd:Q7017"" "," ""               16th century"" "," ""1200"," Getty Center Drive"" "," ""wd:Q65"" "," ""               Los Angeles"" "," ""wd:Q99"" "," ""               California"" "," ""wd:Q30"" "," ""               United States of America"" "," ""http://www.getty.edu/research/"" ",  ,  ,  ,  ,  ,  ,  ,  ,  ,  ,  ,  ,  ,  ,  ,  ,  ,  ,,,,,,,,,
" ""wd:Q11203476"" "," ""art:1559595129-89/"" "," ""               Getty Research Institute"" "," ""art:collectionjulius-s-held-papers"" "," ""Julius S. Held papers"" "," ""wd:Q1712683"" "," ""168 boxes (ca. 70 lin. ft.)"" "," ""Julius S. Held"" "," ""wd:Q7017"" "," ""               16th century"" "," ""1200"," Getty Center Drive"" "," ""wd:Q65"" "," ""               Los Angeles"" "," ""wd:Q99"" "," ""               California"" "," ""wd:Q30"" "," ""               United States of America"" "," ""http://www.getty.edu/research/"" ",  ,  ,  ,  ,  ,  ,  ,  ,  ,  ,  ,  ,  ,  ,  ,  ,  ,  ,,,,,,,,,
" ""wd:Q11203476"" "," ""art:1559595129-89/"" "," ""Getty Research Institute"" "," ""art:collectionjulius-s-held-papers"" "," ""Julius S. Held papers"" "," ""wd:Q1712683"" "," ""168 boxes (ca. 70 lin. ft.)"" "," ""Julius S. Held"" "," ""wd:Q7016"" "," ""               17th century"" "," ""1200"," Getty Center Drive"" "," ""wd:Q65"" "," ""               Los Angeles"" "," ""wd:Q99"" "," ""               California"" "," ""wd:Q30"" "," ""               United States of America"" "," ""http://www.getty.edu/research/"" ",  ,  ,  ,  ,  ,  ,  ,  ,  ,  ,  ,  ,  ,  ,  ,  ,  ,  ,,,,,,,,,
" ""wd:Q11203476"" "," ""art:1559595129-89/"" "," ""               Getty Research Institute"" "," ""art:collectionjulius-s-held-papers"" "," ""Julius S. Held papers"" "," ""wd:Q1712683"" "," ""168 boxes (ca. 70 lin. ft.)"" "," ""Julius S. Held"" "," ""wd:Q7016"" "," ""               17th century"" "," ""1200"," Getty Center Drive"" "," ""wd:Q65"" "," ""               Los Angeles"" "," ""wd:Q99"" "," ""               California"" "," ""wd:Q30"" "," ""               United States of America"" "," ""http://www.getty.edu/research/"" ",  ,  ,  ,  ,  ,  ,  ,  ,  ,  ,  ,  ,  ,  ,  ,  ,  ,  ,,,,,,,,,
" ""wd:Q11203476"" "," ""art:1559595129-89/"" "," ""Getty Research Institute"" "," ""art:collectionjulius-s-held-papers"" "," ""Julius S. Held papers"" "," ""wd:Q1712683"" "," ""168 boxes (ca. 70 lin. ft.)"" "," ""Julius S. Held"" "," ""wd:Q7017"" "," ""               16th century"" "," ""1200"," Getty Center Drive"" "," ""wd:Q65"" "," ""               Los Angeles"" "," ""wd:Q99"" "," ""               California"" "," ""wd:Q30"" "," ""               United States of America"" "," ""http://www.getty.edu/research/"" ",  ,  ,  ,  ,  ,  ,  ,  ,  ,  ,  ,  ,  ,  ,  ,  ,  ,  ,,,,,,,,,
" ""wd:Q11203476"" "," ""art:1559595129-89/"" "," ""               Getty Research Institute"" "," ""art:collectionjulius-s-held-papers"" "," ""Julius S. Held papers"" "," ""wd:Q1712683"" "," ""168 boxes (ca. 70 lin. ft.)"" "," ""Julius S. Held"" "," ""wd:Q7017"" "," ""               16th century"" "," ""1200"," Getty Center Drive"" "," ""wd:Q65"" "," ""               Los Angeles"" "," ""wd:Q99"" "," ""               California"" "," ""wd:Q30"" "," ""               United States of America"" "," ""http://www.getty.edu/research/"" ",  ,  ,  ,  ,  ,  ,  ,  ,  ,  ,  ,  ,  ,  ,  ,  ,  ,  ,,,,,,,,,
" ""wd:Q672416"" "," ""art:1559744839-57/"" "," ""Scuola Normale Superiore"" "," ""art:collectionbattisti-eugenio-complex-of-fonds"" "," ""Battisti Eugenio (complex of fonds)"" "," ""wd:Q1373290"" "," ""about 355 cardboard boxes (320 of documents and 35 of photographs)"" "," ""Eugenio Battisti"" ", Â  , Â  ," ""piazza dei Cavalieri"," 7"" "," ""wd:Q13375"" "," ""      Pisa"" "," ""wd:Q16244"" "," ""      Province of Pisa"" "," ""wd:Q38"" "," ""           Italy"" "," ""https://www.sns.it/"" ",  ,  ,  ,  ,  ,  ,  ,  ,  ,  ,  ,  ,  ,  ,  ,  ,  ,  ,,,,,,,,,
" ""wd:Q672416"" "," ""art:1559904986-68/"" "," ""Scuola Normale Superiore"" "," ""art:collectionventuri-adolfo-complex-of-fonds"" "," ""Venturi Adolfo (complex of fonds)"" "," ""wd:Q2824734"" "," ""47 boxes (36 boxes with correspondence; 3 boxes with ministerial papers â€œPratiche ministerialiâ€; 2 boxes of notebooks"," of different sizes and related to the Italian or European territory; 2 boxes of notes and study documents; 1 box of lessons and manuscripts: 1 box of miscellaneous documentation: 1 box with photographic material: 1 box of ""Venturian Celebrations"")"" "," ""Adolfo Venturi"" ", Â  , Â  ," ""piazza dei Cavalieri"," 7"" "," ""wd:Q13375"" "," ""          Pisa"" "," ""wd:Q16244"" "," ""          Province of Pisa"" "," ""wd:Q38"" "," ""          Italy"" ", Â  ,  ,  ,  ,  ,  ,  ,  ,  ,  ,  ,  ,  ,  ,  ,  ,  ,  ,  ,,,,,,,,
" ""wd:Q872398"" "," ""art:1594144112-97/"" "," ""Kunsthistorisches Institut in Florenz"" "," ""art:collectionnachlass-kurt-badt"" "," ""Nachlass Kurt Badt"" "," ""wd:Q1629748"" "," ""4 boxes"," the fund consists 1894 items"" "," ""Kurt Badt"" "," ""wd:Q37853"" "," ""  Baroque"" "," ""via Giuseppe Giusti 44"," 50121"" "," ""wd:Q2044"" "," ""            Florence"" "," ""wd:Q16172"" "," ""            Province of Florence"" "," ""wd:Q38"" "," ""               Italy"" "," ""http://www.khi.fi.it"" ",  ,  ,  ,  ,  ,  ,  ,  ,  ,  ,  ,  ,  ,  ,  ,  ,  ,  ,,,,,,,,
" ""wd:Q872398"" "," ""art:1594144112-97/"" "," ""          Kunsthistorisches Institut in Florenz"" "," ""art:collectionnachlass-kurt-badt"" "," ""Nachlass Kurt Badt"" "," ""wd:Q1629748"" "," ""4 boxes"," the fund consists 1894 items"" "," ""Kurt Badt"" "," ""wd:Q37853"" "," ""  Baroque"" "," ""via Giuseppe Giusti 44"," 50121"" "," ""wd:Q2044"" "," ""            Florence"" "," ""wd:Q16172"" "," ""            Province of Florence"" "," ""wd:Q38"" "," ""               Italy"" "," ""http://www.khi.fi.it"" ",  ,  ,  ,  ,  ,  ,  ,  ,  ,  ,  ,  ,  ,  ,  ,  ,  ,  ,,,,,,,,
" ""wd:Q872398"" "," ""art:1594144112-97/"" "," ""Kunsthistorisches Institut in Florenz"" "," ""art:collectionnachlass-kurt-badt"" "," ""Nachlass Kurt Badt"" "," ""wd:Q1629748"" "," ""4 boxes"," the fund consists 1894 items"" "," ""Kurt Badt"" "," ""wd:Q12554"" "," ""      Middle Ages"" "," ""via Giuseppe Giusti 44"," 50121"" "," ""wd:Q2044"" "," ""            Florence"" "," ""wd:Q16172"" "," ""            Province of Florence"" "," ""wd:Q38"" "," ""               Italy"" "," ""http://www.khi.fi.it"" ",  ,  ,  ,  ,  ,  ,  ,  ,  ,  ,  ,  ,  ,  ,  ,  ,  ,  ,,,,,,,,
" ""wd:Q872398"" "," ""art:1594144112-97/"" "," ""          Kunsthistorisches Institut in Florenz"" "," ""art:collectionnachlass-kurt-badt"" "," ""Nachlass Kurt Badt"" "," ""wd:Q1629748"" "," ""4 boxes"," the fund consists 1894 items"" "," ""Kurt Badt"" "," ""wd:Q12554"" "," ""      Middle Ages"" "," ""via Giuseppe Giusti 44"," 50121"" "," ""wd:Q2044"" "," ""            Florence"" "," ""wd:Q16172"" "," ""            Province of Florence"" "," ""wd:Q38"" "," ""               Italy"" "," ""http://www.khi.fi.it"" ",  ,  ,  ,  ,  ,  ,  ,  ,  ,  ,  ,  ,  ,  ,  ,  ,  ,  ,,,,,,,,
" ""wd:Q872398"" "," ""art:1594144112-97/"" "," ""Kunsthistorisches Institut in Florenz"" "," ""art:collectionnachlass-kurt-badt"" "," ""Nachlass Kurt Badt"" "," ""wd:Q1629748"" "," ""4 boxes"," the fund consists 1894 items"" "," ""Kurt Badt"" "," ""wd:Q131808"" "," ""  Mannerism"" "," ""via Giuseppe Giusti 44"," 50121"" "," ""wd:Q2044"" "," ""            Florence"" "," ""wd:Q16172"" "," ""            Province of Florence"" "," ""wd:Q38"" "," ""               Italy"" "," ""http://www.khi.fi.it"" ",  ,  ,  ,  ,  ,  ,  ,  ,  ,  ,  ,  ,  ,  ,  ,  ,  ,  ,,,,,,,,
" ""wd:Q872398"" "," ""art:1594144112-97/"" "," ""          Kunsthistorisches Institut in Florenz"" "," ""art:collectionnachlass-kurt-badt"" "," ""Nachlass Kurt Badt"" "," ""wd:Q1629748"" "," ""4 boxes"," the fund consists 1894 items"" "," ""Kurt Badt"" "," ""wd:Q131808"" "," ""  Mannerism"" "," ""via Giuseppe Giusti 44"," 50121"" "," ""wd:Q2044"" "," ""            Florence"" "," ""wd:Q16172"" "," ""            Province of Florence"" "," ""wd:Q38"" "," ""               Italy"" "," ""http://www.khi.fi.it"" ",  ,  ,  ,  ,  ,  ,  ,  ,  ,  ,  ,  ,  ,  ,  ,  ,  ,  ,,,,,,,,
" ""wd:Q872398"" "," ""art:1594144112-97/"" "," ""Kunsthistorisches Institut in Florenz"" "," ""art:collectionnachlass-kurt-badt"" "," ""Nachlass Kurt Badt"" "," ""wd:Q1629748"" "," ""4 boxes"," the fund consists 1894 items"" "," ""Kurt Badt"" "," ""wd:Q7017"" "," ""  16th century"" "," ""via Giuseppe Giusti 44"," 50121"" "," ""wd:Q2044"" "," ""            Florence"" "," ""wd:Q16172"" "," ""            Province of Florence"" "," ""wd:Q38"" "," ""               Italy"" "," ""http://www.khi.fi.it"" ",  ,  ,  ,  ,  ,  ,  ,  ,  ,  ,  ,  ,  ,  ,  ,  ,  ,  ,,,,,,,,
" ""wd:Q872398"" "," ""art:1594144112-97/"" "," ""          Kunsthistorisches Institut in Florenz"" "," ""art:collectionnachlass-kurt-badt"" "," ""Nachlass Kurt Badt"" "," ""wd:Q1629748"" "," ""4 boxes"," the fund consists 1894 items"" "," ""Kurt Badt"" "," ""wd:Q7017"" "," ""  16th century"" "," ""via Giuseppe Giusti 44"," 50121"" "," ""wd:Q2044"" "," ""            Florence"" "," ""wd:Q16172"" "," ""            Province of Florence"" "," ""wd:Q38"" "," ""               Italy"" "," ""http://www.khi.fi.it"" ",  ,  ,  ,  ,  ,  ,  ,  ,  ,  ,  ,  ,  ,  ,  ,  ,  ,  ,,,,,,,,
" ""wd:Q872398"" "," ""art:1594144112-97/"" "," ""Kunsthistorisches Institut in Florenz"" "," ""art:collectionnachlass-kurt-badt"" "," ""Nachlass Kurt Badt"" "," ""wd:Q1629748"" "," ""4 boxes"," the fund consists 1894 items"" "," ""Kurt Badt"" "," ""wd:Q37853"" "," ""  Baroque"" "," ""via Giuseppe Giusti 44"," 50121"" "," ""wd:Q2044"" "," ""            Florence"" "," ""wd:Q16172"" "," ""            Province of Florence"" "," ""art:MD1598611494990"" "," ""       germany"" "," ""http://www.khi.fi.it"" ",  ,  ,  ,  ,  ,  ,  ,  ,  ,  ,  ,  ,  ,  ,  ,  ,  ,  ,,,,,,,,
" ""wd:Q872398"" "," ""art:1594144112-97/"" "," ""          Kunsthistorisches Institut in Florenz"" "," ""art:collectionnachlass-kurt-badt"" "," ""Nachlass Kurt Badt"" "," ""wd:Q1629748"" "," ""4 boxes"," the fund consists 1894 items"" "," ""Kurt Badt"" "," ""wd:Q37853"" "," ""  Baroque"" "," ""via Giuseppe Giusti 44"," 50121"" "," ""wd:Q2044"" "," ""            Florence"" "," ""wd:Q16172"" "," ""            Province of Florence"" "," ""art:MD1598611494990"" "," ""       germany"" "," ""http://www.khi.fi.it"" ",  ,  ,  ,  ,  ,  ,  ,  ,  ,  ,  ,  ,  ,  ,  ,  ,  ,  ,,,,,,,,
" ""wd:Q872398"" "," ""art:1594144112-97/"" "," ""Kunsthistorisches Institut in Florenz"" "," ""art:collectionnachlass-kurt-badt"" "," ""Nachlass Kurt Badt"" "," ""wd:Q1629748"" "," ""4 boxes"," the fund consists 1894 items"" "," ""Kurt Badt"" "," ""wd:Q12554"" "," ""      Middle Ages"" "," ""via Giuseppe Giusti 44"," 50121"" "," ""wd:Q2044"" "," ""            Florence"" "," ""wd:Q16172"" "," ""            Province of Florence"" "," ""art:MD1598611494990"" "," ""       germany"" "," ""http://www.khi.fi.it"" ",  ,  ,  ,  ,  ,  ,  ,  ,  ,  ,  ,  ,  ,  ,  ,  ,  ,  ,,,,,,,,
" ""wd:Q872398"" "," ""art:1594144112-97/"" "," ""          Kunsthistorisches Institut in Florenz"" "," ""art:collectionnachlass-kurt-badt"" "," ""Nachlass Kurt Badt"" "," ""wd:Q1629748"" "," ""4 boxes"," the fund consists 1894 items"" "," ""Kurt Badt"" "," ""wd:Q12554"" "," ""      Middle Ages"" "," ""via Giuseppe Giusti 44"," 50121"" "," ""wd:Q2044"" "," ""            Florence"" "," ""wd:Q16172"" "," ""            Province of Florence"" "," ""art:MD1598611494990"" "," ""       germany"" "," ""http://www.khi.fi.it"" ",  ,  ,  ,  ,  ,  ,  ,  ,  ,  ,  ,  ,  ,  ,  ,  ,  ,  ,,,,,,,,
" ""wd:Q872398"" "," ""art:1594144112-97/"" "," ""Kunsthistorisches Institut in Florenz"" "," ""art:collectionnachlass-kurt-badt"" "," ""Nachlass Kurt Badt"" "," ""wd:Q1629748"" "," ""4 boxes"," the fund consists 1894 items"" "," ""Kurt Badt"" "," ""wd:Q131808"" "," ""  Mannerism"" "," ""via Giuseppe Giusti 44"," 50121"" "," ""wd:Q2044"" "," ""            Florence"" "," ""wd:Q16172"" "," ""            Province of Florence"" "," ""art:MD1598611494990"" "," ""       germany"" "," ""http://www.khi.fi.it"" ",  ,  ,  ,  ,  ,  ,  ,  ,  ,  ,  ,  ,  ,  ,  ,  ,  ,  ,,,,,,,,
" ""wd:Q872398"" "," ""art:1594144112-97/"" "," ""          Kunsthistorisches Institut in Florenz"" "," ""art:collectionnachlass-kurt-badt"" "," ""Nachlass Kurt Badt"" "," ""wd:Q1629748"" "," ""4 boxes"," the fund consists 1894 items"" "," ""Kurt Badt"" "," ""wd:Q131808"" "," ""  Mannerism"" "," ""via Giuseppe Giusti 44"," 50121"" "," ""wd:Q2044"" "," ""            Florence"" "," ""wd:Q16172"" "," ""            Province of Florence"" "," ""art:MD1598611494990"" "," ""       germany"" "," ""http://www.khi.fi.it"" ",  ,  ,  ,  ,  ,  ,  ,  ,  ,  ,  ,  ,  ,  ,  ,  ,  ,  ,,,,,,,,
" ""wd:Q872398"" "," ""art:1594144112-97/"" "," ""Kunsthistorisches Institut in Florenz"" "," ""art:collectionnachlass-kurt-badt"" "," ""Nachlass Kurt Badt"" "," ""wd:Q1629748"" "," ""4 boxes"," the fund consists 1894 items"" "," ""Kurt Badt"" "," ""wd:Q7017"" "," ""  16th century"" "," ""via Giuseppe Giusti 44"," 50121"" "," ""wd:Q2044"" "," ""            Florence"" "," ""wd:Q16172"" "," ""            Province of Florence"" "," ""art:MD1598611494990"" "," ""       germany"" "," ""http://www.khi.fi.it"" ",  ,  ,  ,  ,  ,  ,  ,  ,  ,  ,  ,  ,  ,  ,  ,  ,  ,  ,,,,,,,,
" ""wd:Q872398"" "," ""art:1594144112-97/"" "," ""          Kunsthistorisches Institut in Florenz"" "," ""art:collectionnachlass-kurt-badt"" "," ""Nachlass Kurt Badt"" "," ""wd:Q1629748"" "," ""4 boxes"," the fund consists 1894 items"" "," ""Kurt Badt"" "," ""wd:Q7017"" "," ""  16th century"" "," ""via Giuseppe Giusti 44"," 50121"" "," ""wd:Q2044"" "," ""            Florence"" "," ""wd:Q16172"" "," ""            Province of Florence"" "," ""art:MD1598611494990"" "," ""       germany"" "," ""http://www.khi.fi.it"" ",  ,  ,  ,  ,  ,  ,  ,  ,  ,  ,  ,  ,  ,  ,  ,  ,  ,  ,,,,,,,,
" ""wd:Q11203476"" "," ""art:1598549633-5271676/"" "," ""Getty Research Institute"" "," ""art:collectionernst-kitzinger-papers-"" "," ""Ernst Kitzinger papers"," 1931-1995"" "," ""wd:Q88907"" "," ""33.0 linear feet (55 boxes)"" "," ""Ernst Kitzinger"" "," ""wd:Q12554"" "," ""    Middle Ages"" ", Â  , Â  , Â  , Â  , Â  ," ""wd:Q30"" "," ""                      United States of America"" ", Â  ,  ,  ,  ,  ,  ,  ,  ,  ,  ,  ,  ,  ,  ,  ,  ,  ,  ,  ,,,,,,,,,
" ""wd:Q11203476"" "," ""art:1598549633-5271676/"" "," ""   Getty Research Institute"" "," ""art:collectionernst-kitzinger-papers-"" "," ""Ernst Kitzinger papers"," 1931-1995"" "," ""wd:Q88907"" "," ""33.0 linear feet (55 boxes)"" "," ""Ernst Kitzinger"" "," ""wd:Q12554"" "," ""    Middle Ages"" ", Â  , Â  , Â  , Â  , Â  ," ""wd:Q30"" "," ""                      United States of America"" ", Â  ,  ,  ,  ,  ,  ,  ,  ,  ,  ,  ,  ,  ,  ,  ,  ,  ,  ,  ,,,,,,,,,
" ""wd:Q11203476"" "," ""art:1598549633-5271676/"" "," ""Getty Research Institute"" "," ""art:collectionernst-kitzinger-papers-"" "," ""Ernst Kitzinger papers"," 1931-1995"" "," ""wd:Q88907"" "," ""33.0 linear feet (55 boxes)"" "," ""Ernst Kitzinger"" "," ""wd:Q429811"" "," ""     early Christian art and architecture"" ", Â  , Â  , Â  , Â  , Â  ," ""wd:Q30"" "," ""                      United States of America"" ", Â  ,  ,  ,  ,  ,  ,  ,  ,  ,  ,  ,  ,  ,  ,  ,  ,  ,  ,  ,,,,,,,,,
" ""wd:Q11203476"" "," ""art:1598549633-5271676/"" "," ""   Getty Research Institute"" "," ""art:collectionernst-kitzinger-papers-"" "," ""Ernst Kitzinger papers"," 1931-1995"" "," ""wd:Q88907"" "," ""33.0 linear feet (55 boxes)"" "," ""Ernst Kitzinger"" "," ""wd:Q429811"" "," ""     early Christian art and architecture"" ", Â  , Â  , Â  , Â  , Â  ," ""wd:Q30"" "," ""                      United States of America"" ", Â  ,  ,  ,  ,  ,  ,  ,  ,  ,  ,  ,  ,  ,  ,  ,  ,  ,  ,  ,,,,,,,,,
" ""wd:Q11203476"" "," ""art:1598549633-5271676/"" "," ""Getty Research Institute"" "," ""art:collectionernst-kitzinger-papers-"" "," ""Ernst Kitzinger papers"," 1931-1995"" "," ""wd:Q88907"" "," ""33.0 linear feet (55 boxes)"" "," ""Ernst Kitzinger"" "," ""wd:Q211884"" "," ""Byzantine art"" ", Â  , Â  , Â  , Â  , Â  ," ""wd:Q30"" "," ""                      United States of America"" ", Â  ,  ,  ,  ,  ,  ,  ,  ,  ,  ,  ,  ,  ,  ,  ,  ,  ,  ,  ,,,,,,,,,
" ""wd:Q11203476"" "," ""art:1598549633-5271676/"" "," ""   Getty Research Institute"" "," ""art:collectionernst-kitzinger-papers-"" "," ""Ernst Kitzinger papers"," 1931-1995"" "," ""wd:Q88907"" "," ""33.0 linear feet (55 boxes)"" "," ""Ernst Kitzinger"" "," ""wd:Q211884"" "," ""Byzantine art"" ", Â  , Â  , Â  , Â  , Â  ," ""wd:Q30"" "," ""                      United States of America"" ", Â  ,  ,  ,  ,  ,  ,  ,  ,  ,  ,  ,  ,  ,  ,  ,  ,  ,  ,  ,,,,,,,,,
" ""wd:Q11203476"" "," ""art:1598549633-5271676/"" "," ""Getty Research Institute"" "," ""art:collectionernst-kitzinger-papers-"" "," ""Ernst Kitzinger papers"," 1931-1995"" "," ""wd:Q88907"" "," ""33.0 linear feet (55 boxes)"" "," ""Ernst Kitzinger"" "," ""wd:Q211884"" "," ""                   Byzantine art"" ", Â  , Â  , Â  , Â  , Â  ," ""wd:Q30"" "," ""                      United States of America"" ", Â  ,  ,  ,  ,  ,  ,  ,  ,  ,  ,  ,  ,  ,  ,  ,  ,  ,  ,  ,,,,,,,,,
" ""wd:Q11203476"" "," ""art:1598549633-5271676/"" "," ""   Getty Research Institute"" "," ""art:collectionernst-kitzinger-papers-"" "," ""Ernst Kitzinger papers"," 1931-1995"" "," ""wd:Q88907"" "," ""33.0 linear feet (55 boxes)"" "," ""Ernst Kitzinger"" "," ""wd:Q211884"" "," ""                   Byzantine art"" ", Â  , Â  , Â  , Â  , Â  ," ""wd:Q30"" "," ""                      United States of America"" ", Â  ,  ,  ,  ,  ,  ,  ,  ,  ,  ,  ,  ,  ,  ,  ,  ,  ,  ,  ,,,,,,,,,
" ""wd:Q339759"" "," ""art:1601361647-8266113/"" "," ""Bibliotheca Hertziana %u2013 Max Planck Institute of Art History"" "," ""art:collectionnachlass-otto-lehmannbrockhaus"" "," ""Nachlass Otto Lehmann-Brockhaus"" "," ""wd:Q1641821"" "," ""9 boxes with about 40 folders (further cataloging in progress)"" "," ""Otto Lehmann-Brockhaus"" "," ""wd:Q12554"" "," ""        Middle Ages"" "," ""28"," Via Gregoriana"" "," ""wd:Q220"" "," ""Rome"" "," ""wd:Q220"" "," ""Rome"" "," ""wd:Q38"" "," ""        Italy"" "," ""https://www.biblhertz.it/en/home"" ",  ,  ,  ,  ,  ,  ,  ,  ,  ,  ,  ,  ,  ,  ,  ,  ,  ,  ,,,,,,,,,
" ""wd:Q339759"" "," ""art:1601361647-8266113/"" "," ""        Bibliotheca Hertziana %u2013 Max Planck Institute of Art History"" "," ""art:collectionnachlass-otto-lehmannbrockhaus"" "," ""Nachlass Otto Lehmann-Brockhaus"" "," ""wd:Q1641821"" "," ""9 boxes with about 40 folders (further cataloging in progress)"" "," ""Otto Lehmann-Brockhaus"" "," ""wd:Q12554"" "," ""        Middle Ages"" "," ""28"," Via Gregoriana"" "," ""wd:Q220"" "," ""Rome"" "," ""wd:Q220"" "," ""Rome"" "," ""wd:Q38"" "," ""        Italy"" "," ""https://www.biblhertz.it/en/home"" ",  ,  ,  ,  ,  ,  ,  ,  ,  ,  ,  ,  ,  ,  ,  ,  ,  ,  ,,,,,,,,,
" ""wd:Q339759"" "," ""art:1601361647-8266113/"" "," ""Bibliotheca Hertziana %u2013 Max Planck Institute of Art History"" "," ""art:collectionnachlass-otto-lehmannbrockhaus"" "," ""Nachlass Otto Lehmann-Brockhaus"" "," ""wd:Q1641821"" "," ""9 boxes with about 40 folders (further cataloging in progress)"" "," ""Otto Lehmann-Brockhaus"" "," ""wd:Q12554"" "," ""        Middle Ages"" "," ""28"," Via Gregoriana"" "," ""wd:Q220"" "," ""        Rome"" "," ""wd:Q220"" "," ""Rome"" "," ""wd:Q38"" "," ""        Italy"" "," ""https://www.biblhertz.it/en/home"" ",  ,  ,  ,  ,  ,  ,  ,  ,  ,  ,  ,  ,  ,  ,  ,  ,  ,  ,,,,,,,,,
" ""wd:Q339759"" "," ""art:1601361647-8266113/"" "," ""        Bibliotheca Hertziana %u2013 Max Planck Institute of Art History"" "," ""art:collectionnachlass-otto-lehmannbrockhaus"" "," ""Nachlass Otto Lehmann-Brockhaus"" "," ""wd:Q1641821"" "," ""9 boxes with about 40 folders (further cataloging in progress)"" "," ""Otto Lehmann-Brockhaus"" "," ""wd:Q12554"" "," ""        Middle Ages"" "," ""28"," Via Gregoriana"" "," ""wd:Q220"" "," ""        Rome"" "," ""wd:Q220"" "," ""Rome"" "," ""wd:Q38"" "," ""        Italy"" "," ""https://www.biblhertz.it/en/home"" ",  ,  ,  ,  ,  ,  ,  ,  ,  ,  ,  ,  ,  ,  ,  ,  ,  ,  ,,,,,,,,,
" ""wd:Q339759"" "," ""art:1601361647-8266113/"" "," ""Bibliotheca Hertziana %u2013 Max Planck Institute of Art History"" "," ""art:collectionnachlass-otto-lehmannbrockhaus"" "," ""Nachlass Otto Lehmann-Brockhaus"" "," ""wd:Q1641821"" "," ""9 boxes with about 40 folders (further cataloging in progress)"" "," ""Otto Lehmann-Brockhaus"" "," ""wd:Q12554"" "," ""        Middle Ages"" "," ""28"," Via Gregoriana"" "," ""wd:Q220"" "," ""Rome"" "," ""wd:Q220"" "," ""        Rome"" "," ""wd:Q38"" "," ""        Italy"" "," ""https://www.biblhertz.it/en/home"" ",  ,  ,  ,  ,  ,  ,  ,  ,  ,  ,  ,  ,  ,  ,  ,  ,  ,  ,,,,,,,,,
" ""wd:Q339759"" "," ""art:1601361647-8266113/"" "," ""        Bibliotheca Hertziana %u2013 Max Planck Institute of Art History"" "," ""art:collectionnachlass-otto-lehmannbrockhaus"" "," ""Nachlass Otto Lehmann-Brockhaus"" "," ""wd:Q1641821"" "," ""9 boxes with about 40 folders (further cataloging in progress)"" "," ""Otto Lehmann-Brockhaus"" "," ""wd:Q12554"" "," ""        Middle Ages"" "," ""28"," Via Gregoriana"" "," ""wd:Q220"" "," ""Rome"" "," ""wd:Q220"" "," ""        Rome"" "," ""wd:Q38"" "," ""        Italy"" "," ""https://www.biblhertz.it/en/home"" ",  ,  ,  ,  ,  ,  ,  ,  ,  ,  ,  ,  ,  ,  ,  ,  ,  ,  ,,,,,,,,,
" ""wd:Q339759"" "," ""art:1601361647-8266113/"" "," ""Bibliotheca Hertziana %u2013 Max Planck Institute of Art History"" "," ""art:collectionnachlass-otto-lehmannbrockhaus"" "," ""Nachlass Otto Lehmann-Brockhaus"" "," ""wd:Q1641821"" "," ""9 boxes with about 40 folders (further cataloging in progress)"" "," ""Otto Lehmann-Brockhaus"" "," ""wd:Q12554"" "," ""        Middle Ages"" "," ""28"," Via Gregoriana"" "," ""wd:Q220"" "," ""        Rome"" "," ""wd:Q220"" "," ""        Rome"" "," ""wd:Q38"" "," ""        Italy"" "," ""https://www.biblhertz.it/en/home"" ",  ,  ,  ,  ,  ,  ,  ,  ,  ,  ,  ,  ,  ,  ,  ,  ,  ,  ,,,,,,,,,
" ""wd:Q339759"" "," ""art:1601361647-8266113/"" "," ""        Bibliotheca Hertziana %u2013 Max Planck Institute of Art History"" "," ""art:collectionnachlass-otto-lehmannbrockhaus"" "," ""Nachlass Otto Lehmann-Brockhaus"" "," ""wd:Q1641821"" "," ""9 boxes with about 40 folders (further cataloging in progress)"" "," ""Otto Lehmann-Brockhaus"" "," ""wd:Q12554"" "," ""        Middle Ages"" "," ""28"," Via Gregoriana"" "," ""wd:Q220"" "," ""        Rome"" "," ""wd:Q220"" "," ""        Rome"" "," ""wd:Q38"" "," ""        Italy"" "," ""https://www.biblhertz.it/en/home"" ",  ,  ,  ,  ,  ,  ,  ,  ,  ,  ,  ,  ,  ,  ,  ,  ,  ,  ,,,,,,,,,
" ""wd:Q209344"" "," ""art:1603918925-664806/"" "," ""Sapienza University of Rome"" "," ""art:collectionarchivio-di-lionello-venturi"" "," ""Archivio di Lionello Venturi"" "," ""wd:Q2527217"" "," ""428 Boxes"" "," ""Lionello Venturi"" ", Â  , Â  ," ""piazzale Aldo Moro"," n. 5 001"" "," ""wd:Q220"" "," ""         Rome"" "," ""wd:Q220"" "," ""         Rome"" "," ""wd:Q38"" "," ""         Italy"" "," ""https://saras.uniroma1.it/strutture/archivio-lionello-venturi"" ",  ,  ,  ,  ,  ,  ,  ,  ,  ,  ,  ,  ,  ,  ,  ,  ,  ,  ,,,,,,,,,
" ""wd:Q1634770"" "," ""art:1611658234-4876647/"" "," ""Fondazione Roberto Longhi"" "," ""art:collectionarchivio-longhi"" "," ""Archivio Longhi"" "," ""wd:Q1361667"" "," ""278 boxes"" "," ""Roberto Longhi"" "," ""wd:Q7016"" "," ""                   17th century"" "," ""via Benedetto Fortini"," 30"" "," ""wd:Q2044"" "," ""                  Florence"" "," ""wd:Q16172"" "," ""                  Province of Florence"" "," ""wd:Q38"" "," ""                   Italy"" "," ""https://fondazionelonghi.it/wordpress/it/"" ",  ,  ,  ,  ,  ,  ,  ,  ,  ,  ,  ,  ,  ,  ,  ,  ,  ,  ,,,,,,,,,
" ""wd:Q1634770"" "," ""art:1611658234-4876647/"" "," ""     Fondazione Roberto Longhi"" "," ""art:collectionarchivio-longhi"" "," ""Archivio Longhi"" "," ""wd:Q1361667"" "," ""278 boxes"" "," ""Roberto Longhi"" "," ""wd:Q7016"" "," ""                   17th century"" "," ""via Benedetto Fortini"," 30"" "," ""wd:Q2044"" "," ""                  Florence"" "," ""wd:Q16172"" "," ""                  Province of Florence"" "," ""wd:Q38"" "," ""                   Italy"" "," ""https://fondazionelonghi.it/wordpress/it/"" ",  ,  ,  ,  ,  ,  ,  ,  ,  ,  ,  ,  ,  ,  ,  ,  ,  ,  ,,,,,,,,,
" ""wd:Q1634770"" "," ""art:1611658234-4876647/"" "," ""Fondazione Roberto Longhi"" "," ""art:collectionarchivio-longhi"" "," ""Archivio Longhi"" "," ""wd:Q1361667"" "," ""278 boxes"" "," ""                 Roberto Longhi"" "," ""wd:Q7016"" "," ""                   17th century"" "," ""via Benedetto Fortini"," 30"" "," ""wd:Q2044"" "," ""                  Florence"" "," ""wd:Q16172"" "," ""                  Province of Florence"" "," ""wd:Q38"" "," ""                   Italy"" "," ""https://fondazionelonghi.it/wordpress/it/"" ",  ,  ,  ,  ,  ,  ,  ,  ,  ,  ,  ,  ,  ,  ,  ,  ,  ,  ,,,,,,,,,
" ""wd:Q23687322"" "," ""art:1557325562-63/"" "," ""Fondazione Federico Zeri"" "," ""art:collectionfototeca-fahy"" "," ""Fototeca Fahy"" "," ""wd:Q19997512"" "," ""451 boxes"" "," ""Everett Fahy"" "," ""wd:Q4692"" "," ""                Renaissance"" ", Â  , Â  , Â  , Â  , Â  , Â  , Â  , Â  ,  ,  ,  ,  ,  ,  ,  ,  ,  ,  ,  ,  ,  ,  ,  ,  ,  ,  ,,,,,,,,,,
" ""wd:Q23687322"" "," ""art:1557325562-63/"" "," ""Fondazione Federico Zeri"" "," ""art:collectionfototeca-fahy"" "," ""Fototeca Fahy"" "," ""wd:Q19997512"" "," ""451 boxes"" "," ""Everett Fahy"" "," ""wd:Q7018"" "," ""                15th century"" ", Â  , Â  , Â  , Â  , Â  , Â  , Â  , Â  ,  ,  ,  ,  ,  ,  ,  ,  ,  ,  ,  ,  ,  ,  ,  ,  ,  ,  ,,,,,,,,,,
" ""wd:Q23687322"" "," ""art:1557325562-63/"" "," ""Fondazione Federico Zeri"" "," ""art:collectionfototeca-fahy"" "," ""Fototeca Fahy"" "," ""wd:Q19997512"" "," ""451 boxes"" "," ""Everett Fahy"" "," ""wd:Q7034"" "," ""                14th century"" ", Â  , Â  , Â  , Â  , Â  , Â  , Â  , Â  ,  ,  ,  ,  ,  ,  ,  ,  ,  ,  ,  ,  ,  ,  ,  ,  ,  ,  ,,,,,,,,,,
" ""wd:Q23687322"" "," ""art:1557325562-63/"" "," ""Fondazione Federico Zeri"" "," ""art:collectionfototeca-fahy"" "," ""Fototeca Fahy"" "," ""wd:Q19997512"" "," ""451 boxes"" "," ""Everett Fahy"" "," ""wd:Q7017"" "," ""                16th century"" ", Â  , Â  , Â  , Â  , Â  , Â  , Â  , Â  ,  ,  ,  ,  ,  ,  ,  ,  ,  ,  ,  ,  ,  ,  ,  ,  ,  ,  ,,,,,,,,,,
" ""wd:Q23687322"" "," ""art:1557327110-46/"" "," ""Fondazione Federico Zeri"" "," ""art:collectionfototeca-stefano-tumidei"" "," ""Fototeca Stefano Tumidei"" "," ""wd:Q55453618"" "," ""11.246 photos"" "," ""Stefano Tumidei"" "," ""wd:Q37853"" "," ""                Baroque"" ", Â  , Â  , Â  , Â  , Â  , Â  , Â  , Â  ,  ,  ,  ,  ,  ,  ,  ,  ,  ,  ,  ,  ,  ,  ,  ,  ,  ,  ,,,,,,,,,,
" ""wd:Q23687322"" "," ""art:1557327110-46/"" "," ""Fondazione Federico Zeri"" "," ""art:collectionfototeca-stefano-tumidei"" "," ""Fototeca Stefano Tumidei"" "," ""wd:Q55453618"" "," ""11.246 photos"" "," ""Stefano Tumidei"" "," ""wd:Q7016"" "," ""                17th century"" ", Â  , Â  , Â  , Â  , Â  , Â  , Â  , Â  ,  ,  ,  ,  ,  ,  ,  ,  ,  ,  ,  ,  ,  ,  ,  ,  ,  ,  ,,,,,,,,,,
" ""wd:Q23687322"" "," ""art:1557327110-46/"" "," ""Fondazione Federico Zeri"" "," ""art:collectionfototeca-stefano-tumidei"" "," ""Fototeca Stefano Tumidei"" "," ""wd:Q55453618"" "," ""11.246 photos"" "," ""Stefano Tumidei"" "," ""wd:Q4692"" "," ""               Renaissance"" ", Â  , Â  , Â  , Â  , Â  , Â  , Â  , Â  ,  ,  ,  ,  ,  ,  ,  ,  ,  ,  ,  ,  ,  ,  ,  ,  ,  ,  ,,,,,,,,,,
" ""wd:Q23687322"" "," ""art:1557327110-46/"" "," ""Fondazione Federico Zeri"" "," ""art:collectionfototeca-stefano-tumidei"" "," ""Fototeca Stefano Tumidei"" "," ""wd:Q55453618"" "," ""11.246 photos"" "," ""Stefano Tumidei"" "," ""wd:Q7018"" "," ""                15th century"" ", Â  , Â  , Â  , Â  , Â  , Â  , Â  , Â  ,  ,  ,  ,  ,  ,  ,  ,  ,  ,  ,  ,  ,  ,  ,  ,  ,  ,  ,,,,,,,,,,
" ""wd:Q23687322"" "," ""art:1557327110-46/"" "," ""Fondazione Federico Zeri"" "," ""art:collectionfototeca-stefano-tumidei"" "," ""Fototeca Stefano Tumidei"" "," ""wd:Q55453618"" "," ""11.246 photos"" "," ""Stefano Tumidei"" "," ""wd:Q7017"" "," ""                16th century"" ", Â  , Â  , Â  , Â  , Â  , Â  , Â  , Â  ,  ,  ,  ,  ,  ,  ,  ,  ,  ,  ,  ,  ,  ,  ,  ,  ,  ,  ,,,,,,,,,,
" ""wd:Q23687322"" "," ""art:1557327110-46/"" "," ""Fondazione Federico Zeri"" "," ""art:collectionfototeca-stefano-tumidei"" "," ""Fototeca Stefano Tumidei"" "," ""wd:Q55453618"" "," ""11.246 photos"" "," ""Stefano Tumidei"" "," ""wd:Q14378"" "," ""                       neoclassicism"" ", Â  , Â  , Â  , Â  , Â  , Â  , Â  , Â  ,  ,  ,  ,  ,  ,  ,  ,  ,  ,  ,  ,  ,  ,  ,  ,  ,  ,  ,,,,,,,,,,
" ""wd:Q23687322"" "," ""art:1557327110-46/"" "," ""Fondazione Federico Zeri"" "," ""art:collectionfototeca-stefano-tumidei"" "," ""Fototeca Stefano Tumidei"" "," ""wd:Q55453618"" "," ""11.246 photos"" "," ""Stefano Tumidei"" "," ""wd:Q7015"" "," ""                       18th century"" ", Â  , Â  , Â  , Â  , Â  , Â  , Â  , Â  ,  ,  ,  ,  ,  ,  ,  ,  ,  ,  ,  ,  ,  ,  ,  ,  ,  ,  ,,,,,,,,,,
" ""wd:Q11203476"" "," ""art:1559665347-15/"" "," ""Getty Research Institute"" "," ""art:collectionjohn-popehennessy-papers"" "," ""John Pope-Hennessy papers"" "," ""wd:Q537874"" "," ""116.0 linear feet (220 boxes"," 2 flatfile folders)"" "," ""John Pope-Hennessy"" "," ""wd:Q4692"" "," ""                Renaissance"" ", Â  , Â  , Â  , Â  , Â  , Â  , Â  , Â  ,  ,  ,  ,  ,  ,  ,  ,  ,  ,  ,  ,  ,  ,  ,  ,  ,  ,  ,,,,,,,,,
" ""wd:Q11203476"" "," ""art:1559665347-15/"" "," ""                Getty Research Institute"" "," ""art:collectionjohn-popehennessy-papers"" "," ""John Pope-Hennessy papers"" "," ""wd:Q537874"" "," ""116.0 linear feet (220 boxes"," 2 flatfile folders)"" "," ""John Pope-Hennessy"" "," ""wd:Q4692"" "," ""                Renaissance"" ", Â  , Â  , Â  , Â  , Â  , Â  , Â  , Â  ,  ,  ,  ,  ,  ,  ,  ,  ,  ,  ,  ,  ,  ,  ,  ,  ,  ,  ,,,,,,,,,
" ""wd:Q11203476"" "," ""art:1559665347-15/"" "," ""Getty Research Institute"" "," ""art:collectionjohn-popehennessy-papers"" "," ""John Pope-Hennessy papers"" "," ""wd:Q537874"" "," ""116.0 linear feet (220 boxes"," 2 flatfile folders)"" "," ""                John Pope-Hennessy"" "," ""wd:Q4692"" "," ""                Renaissance"" ", Â  , Â  , Â  , Â  , Â  , Â  , Â  , Â  ,  ,  ,  ,  ,  ,  ,  ,  ,  ,  ,  ,  ,  ,  ,  ,  ,  ,  ,,,,,,,,,
" ""wd:Q11203476"" "," ""art:1559665347-15/"" "," ""                Getty Research Institute"" "," ""art:collectionjohn-popehennessy-papers"" "," ""John Pope-Hennessy papers"" "," ""wd:Q537874"" "," ""116.0 linear feet (220 boxes"," 2 flatfile folders)"" "," ""                John Pope-Hennessy"" "," ""wd:Q4692"" "," ""                Renaissance"" ", Â  , Â  , Â  , Â  , Â  , Â  , Â  , Â  ,  ,  ,  ,  ,  ,  ,  ,  ,  ,  ,  ,  ,  ,  ,  ,  ,  ,  ,,,,,,,,,
" ""wd:Q11203476"" "," ""art:1559665347-15/"" "," ""Getty Research Institute"" "," ""art:collectionjohn-popehennessy-papers"" "," ""John Pope-Hennessy papers"" "," ""wd:Q537874"" "," ""116.0 linear feet (220 boxes"," 2 flatfile folders)"" "," ""John Pope-Hennessy"" "," ""wd:Q7018"" "," ""             15th century"" ", Â  , Â  , Â  , Â  , Â  , Â  , Â  , Â  ,  ,  ,  ,  ,  ,  ,  ,  ,  ,  ,  ,  ,  ,  ,  ,  ,  ,  ,,,,,,,,,
" ""wd:Q11203476"" "," ""art:1559665347-15/"" "," ""                Getty Research Institute"" "," ""art:collectionjohn-popehennessy-papers"" "," ""John Pope-Hennessy papers"" "," ""wd:Q537874"" "," ""116.0 linear feet (220 boxes"," 2 flatfile folders)"" "," ""John Pope-Hennessy"" "," ""wd:Q7018"" "," ""             15th century"" ", Â  , Â  , Â  , Â  , Â  , Â  , Â  , Â  ,  ,  ,  ,  ,  ,  ,  ,  ,  ,  ,  ,  ,  ,  ,  ,  ,  ,  ,,,,,,,,,
" ""wd:Q11203476"" "," ""art:1559665347-15/"" "," ""Getty Research Institute"" "," ""art:collectionjohn-popehennessy-papers"" "," ""John Pope-Hennessy papers"" "," ""wd:Q537874"" "," ""116.0 linear feet (220 boxes"," 2 flatfile folders)"" "," ""                John Pope-Hennessy"" "," ""wd:Q7018"" "," ""             15th century"" ", Â  , Â  , Â  , Â  , Â  , Â  , Â  , Â  ,  ,  ,  ,  ,  ,  ,  ,  ,  ,  ,  ,  ,  ,  ,  ,  ,  ,  ,,,,,,,,,
" ""wd:Q11203476"" "," ""art:1559665347-15/"" "," ""                Getty Research Institute"" "," ""art:collectionjohn-popehennessy-papers"" "," ""John Pope-Hennessy papers"" "," ""wd:Q537874"" "," ""116.0 linear feet (220 boxes"," 2 flatfile folders)"" "," ""                John Pope-Hennessy"" "," ""wd:Q7018"" "," ""             15th century"" ", Â  , Â  , Â  , Â  , Â  , Â  , Â  , Â  ,  ,  ,  ,  ,  ,  ,  ,  ,  ,  ,  ,  ,  ,  ,  ,  ,  ,  ,,,,,,,,,
" ""wd:Q339759"" "," ""art:1559734066-09/"" "," ""Bibliotheca Hertziana %u2013 Max Planck Institute of Art History"" "," ""art:collectionnachlass-richard-krautheimer"" "," ""Nachlass Richard Krautheimer"" "," ""wd:Q90407"" "," ""203 boxes"," several large size folders containing graphic material"" "," ""Richard Krautheimer"" "," ""wd:Q37853"" "," ""Baroque"" ", Â  , Â  , Â  , Â  , Â  , Â  , Â  ," ""https://www.biblhertz.it/en/home"" ",  ,  ,  ,  ,  ,  ,  ,  ,  ,  ,  ,  ,  ,  ,  ,  ,  ,  ,,,,,,,,,
" ""wd:Q339759"" "," ""art:1559734066-09/"" "," ""             Bibliotheca Hertziana %u2013 Max Planck Institute of Art History"" "," ""art:collectionnachlass-richard-krautheimer"" "," ""Nachlass Richard Krautheimer"" "," ""wd:Q90407"" "," ""203 boxes"," several large size folders containing graphic material"" "," ""Richard Krautheimer"" "," ""wd:Q37853"" "," ""Baroque"" ", Â  , Â  , Â  , Â  , Â  , Â  , Â  ," ""https://www.biblhertz.it/en/home"" ",  ,  ,  ,  ,  ,  ,  ,  ,  ,  ,  ,  ,  ,  ,  ,  ,  ,  ,,,,,,,,,
" ""wd:Q339759"" "," ""art:1559734066-09/"" "," ""Bibliotheca Hertziana %u2013 Max Planck Institute of Art History"" "," ""art:collectionnachlass-richard-krautheimer"" "," ""Nachlass Richard Krautheimer"" "," ""wd:Q90407"" "," ""203 boxes"," several large size folders containing graphic material"" "," ""Richard Krautheimer"" "," ""wd:Q37853"" "," ""             Baroque"" ", Â  , Â  , Â  , Â  , Â  , Â  , Â  ," ""https://www.biblhertz.it/en/home"" ",  ,  ,  ,  ,  ,  ,  ,  ,  ,  ,  ,  ,  ,  ,  ,  ,  ,  ,,,,,,,,,
" ""wd:Q339759"" "," ""art:1559734066-09/"" "," ""             Bibliotheca Hertziana %u2013 Max Planck Institute of Art History"" "," ""art:collectionnachlass-richard-krautheimer"" "," ""Nachlass Richard Krautheimer"" "," ""wd:Q90407"" "," ""203 boxes"," several large size folders containing graphic material"" "," ""Richard Krautheimer"" "," ""wd:Q37853"" "," ""             Baroque"" ", Â  , Â  , Â  , Â  , Â  , Â  , Â  ," ""https://www.biblhertz.it/en/home"" ",  ,  ,  ,  ,  ,  ,  ,  ,  ,  ,  ,  ,  ,  ,  ,  ,  ,  ,,,,,,,,,
" ""wd:Q339759"" "," ""art:1559734066-09/"" "," ""Bibliotheca Hertziana %u2013 Max Planck Institute of Art History"" "," ""art:collectionnachlass-richard-krautheimer"" "," ""Nachlass Richard Krautheimer"" "," ""wd:Q90407"" "," ""203 boxes"," several large size folders containing graphic material"" "," ""Richard Krautheimer"" "," ""wd:Q4692"" "," ""             Renaissance"" ", Â  , Â  , Â  , Â  , Â  , Â  , Â  ," ""https://www.biblhertz.it/en/home"" ",  ,  ,  ,  ,  ,  ,  ,  ,  ,  ,  ,  ,  ,  ,  ,  ,  ,  ,,,,,,,,,
" ""wd:Q339759"" "," ""art:1559734066-09/"" "," ""             Bibliotheca Hertziana %u2013 Max Planck Institute of Art History"" "," ""art:collectionnachlass-richard-krautheimer"" "," ""Nachlass Richard Krautheimer"" "," ""wd:Q90407"" "," ""203 boxes"," several large size folders containing graphic material"" "," ""Richard Krautheimer"" "," ""wd:Q4692"" "," ""             Renaissance"" ", Â  , Â  , Â  , Â  , Â  , Â  , Â  ," ""https://www.biblhertz.it/en/home"" ",  ,  ,  ,  ,  ,  ,  ,  ,  ,  ,  ,  ,  ,  ,  ,  ,  ,  ,,,,,,,,,
" ""wd:Q339759"" "," ""art:1559734066-09/"" "," ""Bibliotheca Hertziana %u2013 Max Planck Institute of Art History"" "," ""art:collectionnachlass-richard-krautheimer"" "," ""Nachlass Richard Krautheimer"" "," ""wd:Q90407"" "," ""203 boxes"," several large size folders containing graphic material"" "," ""Richard Krautheimer"" "," ""wd:Q429811"" "," ""             early Christian art and architecture"" ", Â  , Â  , Â  , Â  , Â  , Â  , Â  ," ""https://www.biblhertz.it/en/home"" ",  ,  ,  ,  ,  ,  ,  ,  ,  ,  ,  ,  ,  ,  ,  ,  ,  ,  ,,,,,,,,,
" ""wd:Q339759"" "," ""art:1559734066-09/"" "," ""             Bibliotheca Hertziana %u2013 Max Planck Institute of Art History"" "," ""art:collectionnachlass-richard-krautheimer"" "," ""Nachlass Richard Krautheimer"" "," ""wd:Q90407"" "," ""203 boxes"," several large size folders containing graphic material"" "," ""Richard Krautheimer"" "," ""wd:Q429811"" "," ""             early Christian art and architecture"" ", Â  , Â  , Â  , Â  , Â  , Â  , Â  ," ""https://www.biblhertz.it/en/home"" ",  ,  ,  ,  ,  ,  ,  ,  ,  ,  ,  ,  ,  ,  ,  ,  ,  ,  ,,,,,,,,,
" ""wd:Q339759"" "," ""art:1559734066-09/"" "," ""Bibliotheca Hertziana %u2013 Max Planck Institute of Art History"" "," ""art:collectionnachlass-richard-krautheimer"" "," ""Nachlass Richard Krautheimer"" "," ""wd:Q90407"" "," ""203 boxes"," several large size folders containing graphic material"" "," ""Richard Krautheimer"" "," ""wd:Q211884"" "," ""            Byzantine art"" ", Â  , Â  , Â  , Â  , Â  , Â  , Â  ," ""https://www.biblhertz.it/en/home"" ",  ,  ,  ,  ,  ,  ,  ,  ,  ,  ,  ,  ,  ,  ,  ,  ,  ,  ,,,,,,,,,
" ""wd:Q339759"" "," ""art:1559734066-09/"" "," ""             Bibliotheca Hertziana %u2013 Max Planck Institute of Art History"" "," ""art:collectionnachlass-richard-krautheimer"" "," ""Nachlass Richard Krautheimer"" "," ""wd:Q90407"" "," ""203 boxes"," several large size folders containing graphic material"" "," ""Richard Krautheimer"" "," ""wd:Q211884"" "," ""            Byzantine art"" ", Â  , Â  , Â  , Â  , Â  , Â  , Â  ," ""https://www.biblhertz.it/en/home"" ",  ,  ,  ,  ,  ,  ,  ,  ,  ,  ,  ,  ,  ,  ,  ,  ,  ,  ,,,,,,,,,
" ""wd:Q23687322"" "," ""art:1573468360-52/"" "," ""Fondazione Federico Zeri"" "," ""art:collectionarchivio-luisa-vertova"" "," ""Archivio Luisa Vertova"" "," ""wd:Q61913691"" "," ""55 folders"" "," ""Luisa Vertova"" "," ""wd:Q7016"" "," ""         17th century"" ", Â  , Â  , Â  , Â  , Â  , Â  , Â  , Â  ,  ,  ,  ,  ,  ,  ,  ,  ,  ,  ,  ,  ,  ,  ,  ,  ,  ,  ,,,,,,,,,,
" ""wd:Q23687322"" "," ""art:1573468360-52/"" "," ""Fondazione Federico Zeri"" "," ""art:collectionarchivio-luisa-vertova"" "," ""Archivio Luisa Vertova"" "," ""wd:Q61913691"" "," ""55 folders"" "," ""Luisa Vertova"" "," ""wd:Q4692"" "," ""         Renaissance"" ", Â  , Â  , Â  , Â  , Â  , Â  , Â  , Â  ,  ,  ,  ,  ,  ,  ,  ,  ,  ,  ,  ,  ,  ,  ,  ,  ,  ,  ,,,,,,,,,,
" ""wd:Q23687322"" "," ""art:1573468360-52/"" "," ""Fondazione Federico Zeri"" "," ""art:collectionarchivio-luisa-vertova"" "," ""Archivio Luisa Vertova"" "," ""wd:Q61913691"" "," ""55 folders"" "," ""Luisa Vertova"" "," ""wd:Q7018"" "," ""         15th century"" ", Â  , Â  , Â  , Â  , Â  , Â  , Â  , Â  ,  ,  ,  ,  ,  ,  ,  ,  ,  ,  ,  ,  ,  ,  ,  ,  ,  ,  ,,,,,,,,,,
" ""wd:Q23687322"" "," ""art:1573468360-52/"" "," ""Fondazione Federico Zeri"" "," ""art:collectionarchivio-luisa-vertova"" "," ""Archivio Luisa Vertova"" "," ""wd:Q61913691"" "," ""55 folders"" "," ""Luisa Vertova"" "," ""wd:Q7017"" "," ""         16th century"" ", Â  , Â  , Â  , Â  , Â  , Â  , Â  , Â  ,  ,  ,  ,  ,  ,  ,  ,  ,  ,  ,  ,  ,  ,  ,  ,  ,  ,  ,,,,,,,,,,
" ""wd:Q23687322"" "," ""art:1573468360-52/"" "," ""Fondazione Federico Zeri"" "," ""art:collectionarchivio-luisa-vertova"" "," ""Archivio Luisa Vertova"" "," ""wd:Q61913691"" "," ""55 folders"" "," ""Luisa Vertova"" "," ""wd:Q14378"" "," ""               neoclassicism"" ", Â  , Â  , Â  , Â  , Â  , Â  , Â  , Â  ,  ,  ,  ,  ,  ,  ,  ,  ,  ,  ,  ,  ,  ,  ,  ,  ,  ,  ,,,,,,,,,,
" ""wd:Q23687322"" "," ""art:1573468360-52/"" "," ""Fondazione Federico Zeri"" "," ""art:collectionarchivio-luisa-vertova"" "," ""Archivio Luisa Vertova"" "," ""wd:Q61913691"" "," ""55 folders"" "," ""Luisa Vertova"" "," ""wd:Q7015"" "," ""         18th century"" ", Â  , Â  , Â  , Â  , Â  , Â  , Â  , Â  ,  ,  ,  ,  ,  ,  ,  ,  ,  ,  ,  ,  ,  ,  ,  ,  ,  ,  ,,,,,,,,,,
" ""wd:Q23687322"" "," ""art:1573468360-52/"" "," ""Fondazione Federico Zeri"" "," ""art:collectionarchivio-luisa-vertova"" "," ""Archivio Luisa Vertova"" "," ""wd:Q61913691"" "," ""55 folders"" "," ""Luisa Vertova"" "," ""wd:Q6955"" "," ""               19th century"" ", Â  , Â  , Â  , Â  , Â  , Â  , Â  , Â  ,  ,  ,  ,  ,  ,  ,  ,  ,  ,  ,  ,  ,  ,  ,  ,  ,  ,  ,,,,,,,,,,
" ""wd:Q23687322"" "," ""art:1573468360-52/"" "," ""Fondazione Federico Zeri"" "," ""art:collectionarchivio-luisa-vertova"" "," ""Archivio Luisa Vertova"" "," ""wd:Q61913691"" "," ""55 folders"" "," ""Luisa Vertova"" "," ""wd:Q37068"" "," ""         Romanticism"" ", Â  , Â  , Â  , Â  , Â  , Â  , Â  , Â  ,  ,  ,  ,  ,  ,  ,  ,  ,  ,  ,  ,  ,  ,  ,  ,  ,  ,  ,,,,,,,,,,
" ""wd:Q339759"" "," ""art:1582011722-53/"" "," ""Bibliotheca Hertziana %u2013 Max Planck Institute of Art History"" "," ""art:collectionnachlass-wolfgang-lotz"" "," ""Nachlass Wolfgang Lotz"" "," ""wd:Q1296486"" "," ""10 boxes with about 100 folders"" "," ""Wolfgang Lotz"" "," ""wd:Q37853"" "," ""       Baroque"" "," ""28"," Via Gregoriana"" ", Â  , Â  , Â  , Â  , Â  , Â  ," ""https://www.biblhertz.it/en/home"" ",  ,  ,  ,  ,  ,  ,  ,  ,  ,  ,  ,  ,  ,  ,  ,  ,  ,  ,,,,,,,,,
" ""wd:Q339759"" "," ""art:1582011722-53/"" "," ""       Bibliotheca Hertziana %u2013 Max Planck Institute of Art History"" "," ""art:collectionnachlass-wolfgang-lotz"" "," ""Nachlass Wolfgang Lotz"" "," ""wd:Q1296486"" "," ""10 boxes with about 100 folders"" "," ""Wolfgang Lotz"" "," ""wd:Q37853"" "," ""       Baroque"" "," ""28"," Via Gregoriana"" ", Â  , Â  , Â  , Â  , Â  , Â  ," ""https://www.biblhertz.it/en/home"" ",  ,  ,  ,  ,  ,  ,  ,  ,  ,  ,  ,  ,  ,  ,  ,  ,  ,  ,,,,,,,,,
" ""wd:Q339759"" "," ""art:1582011722-53/"" "," ""Bibliotheca Hertziana %u2013 Max Planck Institute of Art History"" "," ""art:collectionnachlass-wolfgang-lotz"" "," ""Nachlass Wolfgang Lotz"" "," ""wd:Q1296486"" "," ""10 boxes with about 100 folders"" "," ""Wolfgang Lotz"" "," ""wd:Q7016"" "," ""      17th century"" "," ""28"," Via Gregoriana"" ", Â  , Â  , Â  , Â  , Â  , Â  ," ""https://www.biblhertz.it/en/home"" ",  ,  ,  ,  ,  ,  ,  ,  ,  ,  ,  ,  ,  ,  ,  ,  ,  ,  ,,,,,,,,,
" ""wd:Q339759"" "," ""art:1582011722-53/"" "," ""       Bibliotheca Hertziana %u2013 Max Planck Institute of Art History"" "," ""art:collectionnachlass-wolfgang-lotz"" "," ""Nachlass Wolfgang Lotz"" "," ""wd:Q1296486"" "," ""10 boxes with about 100 folders"" "," ""Wolfgang Lotz"" "," ""wd:Q7016"" "," ""      17th century"" "," ""28"," Via Gregoriana"" ", Â  , Â  , Â  , Â  , Â  , Â  ," ""https://www.biblhertz.it/en/home"" ",  ,  ,  ,  ,  ,  ,  ,  ,  ,  ,  ,  ,  ,  ,  ,  ,  ,  ,,,,,,,,,
" ""wd:Q339759"" "," ""art:1582011722-53/"" "," ""Bibliotheca Hertziana %u2013 Max Planck Institute of Art History"" "," ""art:collectionnachlass-wolfgang-lotz"" "," ""Nachlass Wolfgang Lotz"" "," ""wd:Q1296486"" "," ""10 boxes with about 100 folders"" "," ""Wolfgang Lotz"" "," ""wd:Q4692"" "," ""       Renaissance"" "," ""28"," Via Gregoriana"" ", Â  , Â  , Â  , Â  , Â  , Â  ," ""https://www.biblhertz.it/en/home"" ",  ,  ,  ,  ,  ,  ,  ,  ,  ,  ,  ,  ,  ,  ,  ,  ,  ,  ,,,,,,,,,
" ""wd:Q339759"" "," ""art:1582011722-53/"" "," ""       Bibliotheca Hertziana %u2013 Max Planck Institute of Art History"" "," ""art:collectionnachlass-wolfgang-lotz"" "," ""Nachlass Wolfgang Lotz"" "," ""wd:Q1296486"" "," ""10 boxes with about 100 folders"" "," ""Wolfgang Lotz"" "," ""wd:Q4692"" "," ""       Renaissance"" "," ""28"," Via Gregoriana"" ", Â  , Â  , Â  , Â  , Â  , Â  ," ""https://www.biblhertz.it/en/home"" ",  ,  ,  ,  ,  ,  ,  ,  ,  ,  ,  ,  ,  ,  ,  ,  ,  ,  ,,,,,,,,,
" ""wd:Q339759"" "," ""art:1582011722-53/"" "," ""Bibliotheca Hertziana %u2013 Max Planck Institute of Art History"" "," ""art:collectionnachlass-wolfgang-lotz"" "," ""Nachlass Wolfgang Lotz"" "," ""wd:Q1296486"" "," ""10 boxes with about 100 folders"" "," ""Wolfgang Lotz"" "," ""wd:Q7017"" "," ""      16th century"" "," ""28"," Via Gregoriana"" ", Â  , Â  , Â  , Â  , Â  , Â  ," ""https://www.biblhertz.it/en/home"" ",  ,  ,  ,  ,  ,  ,  ,  ,  ,  ,  ,  ,  ,  ,  ,  ,  ,  ,,,,,,,,,
" ""wd:Q339759"" "," ""art:1582011722-53/"" "," ""       Bibliotheca Hertziana %u2013 Max Planck Institute of Art History"" "," ""art:collectionnachlass-wolfgang-lotz"" "," ""Nachlass Wolfgang Lotz"" "," ""wd:Q1296486"" "," ""10 boxes with about 100 folders"" "," ""Wolfgang Lotz"" "," ""wd:Q7017"" "," ""      16th century"" "," ""28"," Via Gregoriana"" ", Â  , Â  , Â  , Â  , Â  , Â  ," ""https://www.biblhertz.it/en/home"" ",  ,  ,  ,  ,  ,  ,  ,  ,  ,  ,  ,  ,  ,  ,  ,  ,  ,  ,,,,,,,,,
" ""wd:Q872398"" "," ""art:1594141385-08/"" "," ""Kunsthistorisches Institut in Florenz"" "," ""art:collectionnachlass-cornelius-von-fabriczy"" "," ""Nachlass Cornelius von Fabriczy"" "," ""wd:Q995470"" "," ""1 box"" "," ""KornÃ©l Fabriczy"" "," ""wd:Q4692"" "," ""     Renaissance"" ", Â  , Â  , Â  , Â  , Â  , Â  , Â  , Â  ,  ,  ,  ,  ,  ,  ,  ,  ,  ,  ,  ,  ,  ,  ,  ,  ,  ,  ,,,,,,,,,,
" ""wd:Q872398"" "," ""art:1594141385-08/"" "," ""        Kunsthistorisches Institut in Florenz"" "," ""art:collectionnachlass-cornelius-von-fabriczy"" "," ""Nachlass Cornelius von Fabriczy"" "," ""wd:Q995470"" "," ""1 box"" "," ""KornÃ©l Fabriczy"" "," ""wd:Q4692"" "," ""     Renaissance"" ", Â  , Â  , Â  , Â  , Â  , Â  , Â  , Â  ,  ,  ,  ,  ,  ,  ,  ,  ,  ,  ,  ,  ,  ,  ,  ,  ,  ,  ,,,,,,,,,,
" ""wd:Q23687322"" "," ""art:1596710882-5904682/"" "," ""Fondazione Federico Zeri"" "," ""art:collectionfototeca-julian-kliemann"" "," ""Fototeca Julian Kliemann"" "," ""wd:Q85761254"" "," ""3",855 photographs and postcards,,,,,,,,,,,,,,,,,,,,,,,,,,,,,,,,,,,,,,
" , Julian Kliemann"" "," ""wd:Q37853"" "," ""            Baroque"" ", Â  , Â  , Â  , Â  , Â  , Â  , Â  , Â  ,  ,  ,  ,  ,  ,  ,  ,  ,  ,  ,  ,  ,  ,  ,  ,  ,  ,  ,,,,,,,,,,,,,,,,,
" ""wd:Q23687322"" "," ""art:1596710882-5904682/"" "," ""Fondazione Federico Zeri"" "," ""art:collectionfototeca-julian-kliemann"" "," ""Fototeca Julian Kliemann"" "," ""wd:Q85761254"" "," ""3",855 photographs and postcards,,,,,,,,,,,,,,,,,,,,,,,,,,,,,,,,,,,,,,
" , Julian Kliemann"" "," ""wd:Q7016"" "," ""            17th century"" ", Â  , Â  , Â  , Â  , Â  , Â  , Â  , Â  ,  ,  ,  ,  ,  ,  ,  ,  ,  ,  ,  ,  ,  ,  ,  ,  ,  ,  ,,,,,,,,,,,,,,,,,
" ""wd:Q23687322"" "," ""art:1596710882-5904682/"" "," ""Fondazione Federico Zeri"" "," ""art:collectionfototeca-julian-kliemann"" "," ""Fototeca Julian Kliemann"" "," ""wd:Q85761254"" "," ""3",855 photographs and postcards,,,,,,,,,,,,,,,,,,,,,,,,,,,,,,,,,,,,,,
" , Julian Kliemann"" "," ""wd:Q4692"" "," ""            Renaissance"" ", Â  , Â  , Â  , Â  , Â  , Â  , Â  , Â  ,  ,  ,  ,  ,  ,  ,  ,  ,  ,  ,  ,  ,  ,  ,  ,  ,  ,  ,,,,,,,,,,,,,,,,,
" ""wd:Q23687322"" "," ""art:1596710882-5904682/"" "," ""Fondazione Federico Zeri"" "," ""art:collectionfototeca-julian-kliemann"" "," ""Fototeca Julian Kliemann"" "," ""wd:Q85761254"" "," ""3",855 photographs and postcards,,,,,,,,,,,,,,,,,,,,,,,,,,,,,,,,,,,,,,
" , Julian Kliemann"" "," ""wd:Q7018"" "," ""            15th century"" ", Â  , Â  , Â  , Â  , Â  , Â  , Â  , Â  ,  ,  ,  ,  ,  ,  ,  ,  ,  ,  ,  ,  ,  ,  ,  ,  ,  ,  ,,,,,,,,,,,,,,,,,
" ""wd:Q23687322"" "," ""art:1596710882-5904682/"" "," ""Fondazione Federico Zeri"" "," ""art:collectionfototeca-julian-kliemann"" "," ""Fototeca Julian Kliemann"" "," ""wd:Q85761254"" "," ""3",855 photographs and postcards,,,,,,,,,,,,,,,,,,,,,,,,,,,,,,,,,,,,,,
" , Julian Kliemann"" "," ""wd:Q131808"" "," ""            Mannerism"" ", Â  , Â  , Â  , Â  , Â  , Â  , Â  , Â  ,  ,  ,  ,  ,  ,  ,  ,  ,  ,  ,  ,  ,  ,  ,  ,  ,  ,  ,,,,,,,,,,,,,,,,,
" ""wd:Q23687322"" "," ""art:1596710882-5904682/"" "," ""Fondazione Federico Zeri"" "," ""art:collectionfototeca-julian-kliemann"" "," ""Fototeca Julian Kliemann"" "," ""wd:Q85761254"" "," ""3",855 photographs and postcards,,,,,,,,,,,,,,,,,,,,,,,,,,,,,,,,,,,,,,
" , Julian Kliemann"" "," ""wd:Q7017"" "," ""            16th century"" ", Â  , Â  , Â  , Â  , Â  , Â  , Â  , Â  ,  ,  ,  ,  ,  ,  ,  ,  ,  ,  ,  ,  ,  ,  ,  ,  ,  ,  ,,,,,,,,,,,,,,,,,
" ""wd:Q872398"" "," ""art:1598354394-1608677/"" "," ""Kunsthistorisches Institut in Florenz"" "," ""art:collectionnachlass-fritz-heinemann-notizen-zur-venezianischen-malerei"" "," ""Nachlass Fritz Heinemann"," Notizen zur venezianischen Malerei"" "," ""wd:Q1271052"" "," ""1 box"" "," ""Fritz Heinemann"" "," ""wd:Q37853"" "," ""         baroque"" ", Â  , Â  , Â  , Â  , Â  , Â  , Â  , Â  ,  ,  ,  ,  ,  ,  ,  ,  ,  ,  ,  ,  ,  ,  ,  ,  ,  ,  ,,,,,,,,,
" ""wd:Q872398"" "," ""art:1598354394-1608677/"" "," ""             Kunsthistorisches Institut in Florenz"" "," ""art:collectionnachlass-fritz-heinemann-notizen-zur-venezianischen-malerei"" "," ""Nachlass Fritz Heinemann"," Notizen zur venezianischen Malerei"" "," ""wd:Q1271052"" "," ""1 box"" "," ""Fritz Heinemann"" "," ""wd:Q37853"" "," ""         baroque"" ", Â  , Â  , Â  , Â  , Â  , Â  , Â  , Â  ,  ,  ,  ,  ,  ,  ,  ,  ,  ,  ,  ,  ,  ,  ,  ,  ,  ,  ,,,,,,,,,
" ""wd:Q872398"" "," ""art:1598354394-1608677/"" "," ""Kunsthistorisches Institut in Florenz"" "," ""art:collectionnachlass-fritz-heinemann-notizen-zur-venezianischen-malerei"" "," ""Nachlass Fritz Heinemann"," Notizen zur venezianischen Malerei"" "," ""wd:Q1271052"" "," ""1 box"" "," ""Fritz Heinemann"" "," ""wd:Q7016"" "," ""           17th century"" ", Â  , Â  , Â  , Â  , Â  , Â  , Â  , Â  ,  ,  ,  ,  ,  ,  ,  ,  ,  ,  ,  ,  ,  ,  ,  ,  ,  ,  ,,,,,,,,,
" ""wd:Q872398"" "," ""art:1598354394-1608677/"" "," ""             Kunsthistorisches Institut in Florenz"" "," ""art:collectionnachlass-fritz-heinemann-notizen-zur-venezianischen-malerei"" "," ""Nachlass Fritz Heinemann"," Notizen zur venezianischen Malerei"" "," ""wd:Q1271052"" "," ""1 box"" "," ""Fritz Heinemann"" "," ""wd:Q7016"" "," ""           17th century"" ", Â  , Â  , Â  , Â  , Â  , Â  , Â  , Â  ,  ,  ,  ,  ,  ,  ,  ,  ,  ,  ,  ,  ,  ,  ,  ,  ,  ,  ,,,,,,,,,
" ""wd:Q872398"" "," ""art:1598354394-1608677/"" "," ""Kunsthistorisches Institut in Florenz"" "," ""art:collectionnachlass-fritz-heinemann-notizen-zur-venezianischen-malerei"" "," ""Nachlass Fritz Heinemann"," Notizen zur venezianischen Malerei"" "," ""wd:Q1271052"" "," ""1 box"" "," ""Fritz Heinemann"" "," ""wd:Q4692"" "," ""         Renaissance"" ", Â  , Â  , Â  , Â  , Â  , Â  , Â  , Â  ,  ,  ,  ,  ,  ,  ,  ,  ,  ,  ,  ,  ,  ,  ,  ,  ,  ,  ,,,,,,,,,
" ""wd:Q872398"" "," ""art:1598354394-1608677/"" "," ""             Kunsthistorisches Institut in Florenz"" "," ""art:collectionnachlass-fritz-heinemann-notizen-zur-venezianischen-malerei"" "," ""Nachlass Fritz Heinemann"," Notizen zur venezianischen Malerei"" "," ""wd:Q1271052"" "," ""1 box"" "," ""Fritz Heinemann"" "," ""wd:Q4692"" "," ""         Renaissance"" ", Â  , Â  , Â  , Â  , Â  , Â  , Â  , Â  ,  ,  ,  ,  ,  ,  ,  ,  ,  ,  ,  ,  ,  ,  ,  ,  ,  ,  ,,,,,,,,,
" ""wd:Q872398"" "," ""art:1598354394-1608677/"" "," ""Kunsthistorisches Institut in Florenz"" "," ""art:collectionnachlass-fritz-heinemann-notizen-zur-venezianischen-malerei"" "," ""Nachlass Fritz Heinemann"," Notizen zur venezianischen Malerei"" "," ""wd:Q1271052"" "," ""1 box"" "," ""Fritz Heinemann"" "," ""wd:Q7018"" "," ""           15th century"" ", Â  , Â  , Â  , Â  , Â  , Â  , Â  , Â  ,  ,  ,  ,  ,  ,  ,  ,  ,  ,  ,  ,  ,  ,  ,  ,  ,  ,  ,,,,,,,,,
" ""wd:Q872398"" "," ""art:1598354394-1608677/"" "," ""             Kunsthistorisches Institut in Florenz"" "," ""art:collectionnachlass-fritz-heinemann-notizen-zur-venezianischen-malerei"" "," ""Nachlass Fritz Heinemann"," Notizen zur venezianischen Malerei"" "," ""wd:Q1271052"" "," ""1 box"" "," ""Fritz Heinemann"" "," ""wd:Q7018"" "," ""           15th century"" ", Â  , Â  , Â  , Â  , Â  , Â  , Â  , Â  ,  ,  ,  ,  ,  ,  ,  ,  ,  ,  ,  ,  ,  ,  ,  ,  ,  ,  ,,,,,,,,,
" ""wd:Q872398"" "," ""art:1598354394-1608677/"" "," ""Kunsthistorisches Institut in Florenz"" "," ""art:collectionnachlass-fritz-heinemann-notizen-zur-venezianischen-malerei"" "," ""Nachlass Fritz Heinemann"," Notizen zur venezianischen Malerei"" "," ""wd:Q1271052"" "," ""1 box"" "," ""Fritz Heinemann"" "," ""wd:Q131808"" "," ""         Mannerism"" ", Â  , Â  , Â  , Â  , Â  , Â  , Â  , Â  ,  ,  ,  ,  ,  ,  ,  ,  ,  ,  ,  ,  ,  ,  ,  ,  ,  ,  ,,,,,,,,,
" ""wd:Q872398"" "," ""art:1598354394-1608677/"" "," ""             Kunsthistorisches Institut in Florenz"" "," ""art:collectionnachlass-fritz-heinemann-notizen-zur-venezianischen-malerei"" "," ""Nachlass Fritz Heinemann"," Notizen zur venezianischen Malerei"" "," ""wd:Q1271052"" "," ""1 box"" "," ""Fritz Heinemann"" "," ""wd:Q131808"" "," ""         Mannerism"" ", Â  , Â  , Â  , Â  , Â  , Â  , Â  , Â  ,  ,  ,  ,  ,  ,  ,  ,  ,  ,  ,  ,  ,  ,  ,  ,  ,  ,  ,,,,,,,,,
" ""wd:Q872398"" "," ""art:1598354394-1608677/"" "," ""Kunsthistorisches Institut in Florenz"" "," ""art:collectionnachlass-fritz-heinemann-notizen-zur-venezianischen-malerei"" "," ""Nachlass Fritz Heinemann"," Notizen zur venezianischen Malerei"" "," ""wd:Q1271052"" "," ""1 box"" "," ""Fritz Heinemann"" "," ""wd:Q7017"" "," ""     16th century"" ", Â  , Â  , Â  , Â  , Â  , Â  , Â  , Â  ,  ,  ,  ,  ,  ,  ,  ,  ,  ,  ,  ,  ,  ,  ,  ,  ,  ,  ,,,,,,,,,
" ""wd:Q872398"" "," ""art:1598354394-1608677/"" "," ""             Kunsthistorisches Institut in Florenz"" "," ""art:collectionnachlass-fritz-heinemann-notizen-zur-venezianischen-malerei"" "," ""Nachlass Fritz Heinemann"," Notizen zur venezianischen Malerei"" "," ""wd:Q1271052"" "," ""1 box"" "," ""Fritz Heinemann"" "," ""wd:Q7017"" "," ""     16th century"" ", Â  , Â  , Â  , Â  , Â  , Â  , Â  , Â  ,  ,  ,  ,  ,  ,  ,  ,  ,  ,  ,  ,  ,  ,  ,  ,  ,  ,  ,,,,,,,,,
" ""wd:Q11203476"" "," ""art:1598474344-8067195/"" "," ""Getty Research Institute"" "," ""art:collectionluigi-salerno-research-papers"" "," ""Luigi Salerno research papers"" "," ""wd:Q6700132"" "," ""61 boxes"," 1 flatfile"" "," ""Luigi Salerno"" "," ""wd:Q37853"" "," ""    Baroque"" ", Â  , Â  , Â  , Â  , Â  , Â  , Â  , Â  ,  ,  ,  ,  ,  ,  ,  ,  ,  ,  ,  ,  ,  ,  ,  ,  ,  ,  ,,,,,,,,,
" ""wd:Q11203476"" "," ""art:1598474344-8067195/"" "," ""                        Getty Research Institute"" "," ""art:collectionluigi-salerno-research-papers"" "," ""Luigi Salerno research papers"" "," ""wd:Q6700132"" "," ""61 boxes"," 1 flatfile"" "," ""Luigi Salerno"" "," ""wd:Q37853"" "," ""    Baroque"" ", Â  , Â  , Â  , Â  , Â  , Â  , Â  , Â  ,  ,  ,  ,  ,  ,  ,  ,  ,  ,  ,  ,  ,  ,  ,  ,  ,  ,  ,,,,,,,,,
" ""wd:Q11203476"" "," ""art:1598474344-8067195/"" "," ""Getty Research Institute"" "," ""art:collectionluigi-salerno-research-papers"" "," ""Luigi Salerno research papers"" "," ""wd:Q6700132"" "," ""61 boxes"," 1 flatfile"" "," ""Luigi Salerno"" "," ""wd:Q7016"" "," ""                       17th century"" ", Â  , Â  , Â  , Â  , Â  , Â  , Â  , Â  ,  ,  ,  ,  ,  ,  ,  ,  ,  ,  ,  ,  ,  ,  ,  ,  ,  ,  ,,,,,,,,,
" ""wd:Q11203476"" "," ""art:1598474344-8067195/"" "," ""                        Getty Research Institute"" "," ""art:collectionluigi-salerno-research-papers"" "," ""Luigi Salerno research papers"" "," ""wd:Q6700132"" "," ""61 boxes"," 1 flatfile"" "," ""Luigi Salerno"" "," ""wd:Q7016"" "," ""                       17th century"" ", Â  , Â  , Â  , Â  , Â  , Â  , Â  , Â  ,  ,  ,  ,  ,  ,  ,  ,  ,  ,  ,  ,  ,  ,  ,  ,  ,  ,  ,,,,,,,,,
" ""wd:Q11203476"" "," ""art:1598474344-8067195/"" "," ""Getty Research Institute"" "," ""art:collectionluigi-salerno-research-papers"" "," ""Luigi Salerno research papers"" "," ""wd:Q6700132"" "," ""61 boxes"," 1 flatfile"" "," ""Luigi Salerno"" "," ""wd:Q7015"" "," ""            18th century"" ", Â  , Â  , Â  , Â  , Â  , Â  , Â  , Â  ,  ,  ,  ,  ,  ,  ,  ,  ,  ,  ,  ,  ,  ,  ,  ,  ,  ,  ,,,,,,,,,
" ""wd:Q11203476"" "," ""art:1598474344-8067195/"" "," ""                        Getty Research Institute"" "," ""art:collectionluigi-salerno-research-papers"" "," ""Luigi Salerno research papers"" "," ""wd:Q6700132"" "," ""61 boxes"," 1 flatfile"" "," ""Luigi Salerno"" "," ""wd:Q7015"" "," ""            18th century"" ", Â  , Â  , Â  , Â  , Â  , Â  , Â  , Â  ,  ,  ,  ,  ,  ,  ,  ,  ,  ,  ,  ,  ,  ,  ,  ,  ,  ,  ,,,,,,,,,
" ""wd:Q872398"" "," ""art:1598630286-3009102/"" "," ""Kunsthistorisches Institut in Florenz"" "," ""art:collectionfondo-aby-warburg"" "," ""Fondo Aby Warburg"" "," ""wd:Q60185"" "," ""2 Boxes; 1700 Items"" "," ""Aby Warburg"" "," ""wd:Q4692"" "," ""            Renaissance"" ", Â  , Â  , Â  , Â  , Â  , Â  , Â  , Â  ,  ,  ,  ,  ,  ,  ,  ,  ,  ,  ,  ,  ,  ,  ,  ,  ,  ,  ,,,,,,,,,,
" ""wd:Q872398"" "," ""art:1598630286-3009102/"" "," ""              Kunsthistorisches Institut in Florenz"" "," ""art:collectionfondo-aby-warburg"" "," ""Fondo Aby Warburg"" "," ""wd:Q60185"" "," ""2 Boxes; 1700 Items"" "," ""Aby Warburg"" "," ""wd:Q4692"" "," ""            Renaissance"" ", Â  , Â  , Â  , Â  , Â  , Â  , Â  , Â  ,  ,  ,  ,  ,  ,  ,  ,  ,  ,  ,  ,  ,  ,  ,  ,  ,  ,  ,,,,,,,,,,
" ""wd:Q11203476"" "," ""art:1598898560-356721/"" "," ""Getty Research Institute"" "," ""art:collectionellis-k-waterhouse-notebooks-and-research-files"" "," ""Ellis K. Waterhouse notebooks and research files"" "," ""wd:Q3051533"" "," ""34 boxes"" "," ""Ellis Waterhouse"" "," ""wd:Q37853"" "," ""baroque"" ", Â  , Â  , Â  , Â  , Â  , Â  , Â  , Â  ,  ,  ,  ,  ,  ,  ,  ,  ,  ,  ,  ,  ,  ,  ,  ,  ,  ,  ,,,,,,,,,,
" ""wd:Q11203476"" "," ""art:1598898560-356721/"" "," ""               Getty Research Institute"" "," ""art:collectionellis-k-waterhouse-notebooks-and-research-files"" "," ""Ellis K. Waterhouse notebooks and research files"" "," ""wd:Q3051533"" "," ""34 boxes"" "," ""Ellis Waterhouse"" "," ""wd:Q37853"" "," ""baroque"" ", Â  , Â  , Â  , Â  , Â  , Â  , Â  , Â  ,  ,  ,  ,  ,  ,  ,  ,  ,  ,  ,  ,  ,  ,  ,  ,  ,  ,  ,,,,,,,,,,
" ""wd:Q11203476"" "," ""art:1598898560-356721/"" "," ""Getty Research Institute"" "," ""art:collectionellis-k-waterhouse-notebooks-and-research-files"" "," ""Ellis K. Waterhouse notebooks and research files"" "," ""wd:Q3051533"" "," ""34 boxes"" "," ""Ellis Waterhouse"" "," ""wd:Q37853"" "," ""             baroque"" ", Â  , Â  , Â  , Â  , Â  , Â  , Â  , Â  ,  ,  ,  ,  ,  ,  ,  ,  ,  ,  ,  ,  ,  ,  ,  ,  ,  ,  ,,,,,,,,,,
" ""wd:Q11203476"" "," ""art:1598898560-356721/"" "," ""               Getty Research Institute"" "," ""art:collectionellis-k-waterhouse-notebooks-and-research-files"" "," ""Ellis K. Waterhouse notebooks and research files"" "," ""wd:Q3051533"" "," ""34 boxes"" "," ""Ellis Waterhouse"" "," ""wd:Q37853"" "," ""             baroque"" ", Â  , Â  , Â  , Â  , Â  , Â  , Â  , Â  ,  ,  ,  ,  ,  ,  ,  ,  ,  ,  ,  ,  ,  ,  ,  ,  ,  ,  ,,,,,,,,,,
" ""wd:Q11203476"" "," ""art:1598898560-356721/"" "," ""Getty Research Institute"" "," ""art:collectionellis-k-waterhouse-notebooks-and-research-files"" "," ""Ellis K. Waterhouse notebooks and research files"" "," ""wd:Q3051533"" "," ""34 boxes"" "," ""Ellis Waterhouse"" "," ""wd:Q131808"" "," ""Mannerism"" ", Â  , Â  , Â  , Â  , Â  , Â  , Â  , Â  ,  ,  ,  ,  ,  ,  ,  ,  ,  ,  ,  ,  ,  ,  ,  ,  ,  ,  ,,,,,,,,,,
" ""wd:Q11203476"" "," ""art:1598898560-356721/"" "," ""               Getty Research Institute"" "," ""art:collectionellis-k-waterhouse-notebooks-and-research-files"" "," ""Ellis K. Waterhouse notebooks and research files"" "," ""wd:Q3051533"" "," ""34 boxes"" "," ""Ellis Waterhouse"" "," ""wd:Q131808"" "," ""Mannerism"" ", Â  , Â  , Â  , Â  , Â  , Â  , Â  , Â  ,  ,  ,  ,  ,  ,  ,  ,  ,  ,  ,  ,  ,  ,  ,  ,  ,  ,  ,,,,,,,,,,
" ""wd:Q11203476"" "," ""art:1598898560-356721/"" "," ""Getty Research Institute"" "," ""art:collectionellis-k-waterhouse-notebooks-and-research-files"" "," ""Ellis K. Waterhouse notebooks and research files"" "," ""wd:Q3051533"" "," ""34 boxes"" "," ""Ellis Waterhouse"" "," ""wd:Q131808"" "," ""             Mannerism"" ", Â  , Â  , Â  , Â  , Â  , Â  , Â  , Â  ,  ,  ,  ,  ,  ,  ,  ,  ,  ,  ,  ,  ,  ,  ,  ,  ,  ,  ,,,,,,,,,,
" ""wd:Q11203476"" "," ""art:1598898560-356721/"" "," ""               Getty Research Institute"" "," ""art:collectionellis-k-waterhouse-notebooks-and-research-files"" "," ""Ellis K. Waterhouse notebooks and research files"" "," ""wd:Q3051533"" "," ""34 boxes"" "," ""Ellis Waterhouse"" "," ""wd:Q131808"" "," ""             Mannerism"" ", Â  , Â  , Â  , Â  , Â  , Â  , Â  , Â  ,  ,  ,  ,  ,  ,  ,  ,  ,  ,  ,  ,  ,  ,  ,  ,  ,  ,  ,,,,,,,,,,
" ""wd:Q11203476"" "," ""art:1598912165-7504091/"" "," ""Getty Research Institute"" "," ""art:collectionulrich-middledorf-papers"" "," ""Ulrich Middledorf papers"" "," ""wd:Q1715096"" "," ""172 boxes"" "," ""Ulrich Middeldorf"" "," ""wd:Q4692"" "," ""         Renaissance"" ", Â  , Â  , Â  , Â  , Â  , Â  , Â  , Â  ,  ,  ,  ,  ,  ,  ,  ,  ,  ,  ,  ,  ,  ,  ,  ,  ,  ,  ,,,,,,,,,,
" ""wd:Q11203476"" "," ""art:1598912165-7504091/"" "," ""           Getty Research Institute"" "," ""art:collectionulrich-middledorf-papers"" "," ""Ulrich Middledorf papers"" "," ""wd:Q1715096"" "," ""172 boxes"" "," ""Ulrich Middeldorf"" "," ""wd:Q4692"" "," ""         Renaissance"" ", Â  , Â  , Â  , Â  , Â  , Â  , Â  , Â  ,  ,  ,  ,  ,  ,  ,  ,  ,  ,  ,  ,  ,  ,  ,  ,  ,  ,  ,,,,,,,,,,
" ""wd:Q11203476"" "," ""art:1599059093-1055605/"" "," ""Getty Research Institute"" "," ""art:collectionleo-steinberg-research-papers"" "," ""Leo Steinberg research papers"" "," ""wd:Q457739"" "," ""12 Linear Feet (54 boxes"," 63 unprocessed boxes) "" "," ""Leo Steinberg"" "," ""wd:Q4692"" "," ""            Renaissance"" ", Â  , Â  , Â  , Â  , Â  , Â  , Â  , Â  ,  ,  ,  ,  ,  ,  ,  ,  ,  ,  ,  ,  ,  ,  ,  ,  ,  ,  ,,,,,,,,,
" ""wd:Q11203476"" "," ""art:1599059093-1055605/"" "," ""             Getty Research Institute"" "," ""art:collectionleo-steinberg-research-papers"" "," ""Leo Steinberg research papers"" "," ""wd:Q457739"" "," ""12 Linear Feet (54 boxes"," 63 unprocessed boxes) "" "," ""Leo Steinberg"" "," ""wd:Q4692"" "," ""            Renaissance"" ", Â  , Â  , Â  , Â  , Â  , Â  , Â  , Â  ,  ,  ,  ,  ,  ,  ,  ,  ,  ,  ,  ,  ,  ,  ,  ,  ,  ,  ,,,,,,,,,
" ""wd:Q11203476"" "," ""art:1599059093-1055605/"" "," ""Getty Research Institute"" "," ""art:collectionleo-steinberg-research-papers"" "," ""Leo Steinberg research papers"" "," ""wd:Q457739"" "," ""12 Linear Feet (54 boxes"," 63 unprocessed boxes) "" "," ""Leo Steinberg"" "," ""wd:Q38166"" "," ""            modern art"" ", Â  , Â  , Â  , Â  , Â  , Â  , Â  , Â  ,  ,  ,  ,  ,  ,  ,  ,  ,  ,  ,  ,  ,  ,  ,  ,  ,  ,  ,,,,,,,,,
" ""wd:Q11203476"" "," ""art:1599059093-1055605/"" "," ""             Getty Research Institute"" "," ""art:collectionleo-steinberg-research-papers"" "," ""Leo Steinberg research papers"" "," ""wd:Q457739"" "," ""12 Linear Feet (54 boxes"," 63 unprocessed boxes) "" "," ""Leo Steinberg"" "," ""wd:Q38166"" "," ""            modern art"" ", Â  , Â  , Â  , Â  , Â  , Â  , Â  , Â  ,  ,  ,  ,  ,  ,  ,  ,  ,  ,  ,  ,  ,  ,  ,  ,  ,  ,  ,,,,,,,,,
" ""wd:Q872398"" "," ""art:1602245859-1839957/"" "," ""Kunsthistorisches Institut in Florenz"" "," ""art:collectionnachlass-werner-cohn"" "," ""Nachlass Werner Cohn"" "," ""wd:Q18935222"" "," ""6 archive boxes "" "," ""Werner Cohn"" "," ""wd:Q4692"" "," ""     Renaissance"" ", Â  , Â  , Â  , Â  , Â  , Â  , Â  , Â  ,  ,  ,  ,  ,  ,  ,  ,  ,  ,  ,  ,  ,  ,  ,  ,  ,  ,  ,,,,,,,,,,
" ""wd:Q872398"" "," ""art:1602245859-1839957/"" "," ""     Kunsthistorisches Institut in Florenz"" "," ""art:collectionnachlass-werner-cohn"" "," ""Nachlass Werner Cohn"" "," ""wd:Q18935222"" "," ""6 archive boxes "" "," ""Werner Cohn"" "," ""wd:Q4692"" "," ""     Renaissance"" ", Â  , Â  , Â  , Â  , Â  , Â  , Â  , Â  ,  ,  ,  ,  ,  ,  ,  ,  ,  ,  ,  ,  ,  ,  ,  ,  ,  ,  ,,,,,,,,,,
" ""wd:Q872398"" "," ""art:1602245859-1839957/"" "," ""Kunsthistorisches Institut in Florenz"" "," ""art:collectionnachlass-werner-cohn"" "," ""Nachlass Werner Cohn"" "," ""wd:Q18935222"" "," ""6 archive boxes "" "," ""Werner Cohn"" "," ""wd:Q12554"" "," ""     Middle Ages"" ", Â  , Â  , Â  , Â  , Â  , Â  , Â  , Â  ,  ,  ,  ,  ,  ,  ,  ,  ,  ,  ,  ,  ,  ,  ,  ,  ,  ,  ,,,,,,,,,,
" ""wd:Q872398"" "," ""art:1602245859-1839957/"" "," ""     Kunsthistorisches Institut in Florenz"" "," ""art:collectionnachlass-werner-cohn"" "," ""Nachlass Werner Cohn"" "," ""wd:Q18935222"" "," ""6 archive boxes "" "," ""Werner Cohn"" "," ""wd:Q12554"" "," ""     Middle Ages"" ", Â  , Â  , Â  , Â  , Â  , Â  , Â  , Â  ,  ,  ,  ,  ,  ,  ,  ,  ,  ,  ,  ,  ,  ,  ,  ,  ,  ,  ,,,,,,,,,,
