Place Entity,Coordinates,Place,lat,lon,Latitude,Longitude,Place
Q2759,"12º38'13.92""E, 43º43'30.86""N",Urbino,"12º38'13.92""E","43º43'30.86""N",43.725238888,12.6372,Urbino
Q13134,"12º54'47.88""E, 43º54'36.54""N",Pesaro,"12º54'47.88""E","43º54'36.54""N",43.91015,12.9133,Pesaro
Q34130,"14º31'60.00""E, 36º57'0.00""N",Vittoria,"14º31'60.00""E","36º57'0.00""N",36.95,14.533333333,Vittoria
Q8621,"12º39'0.00""E, 42º33'60.00""N",Terni,"12º39'0.00""E","42º33'60.00""N",42.566666666,12.65,Terni
Q29080,"11º28'60.00""E, 44º27'0.00""N",Ozzano dell'Emilia,"11º28'60.00""E","44º27'0.00""N",44.45,11.483333333,Ozzano dell'Emilia
Q13362,"11º37'11.51""E, 44º50'7.07""N",Ferrara,"11º37'11.51""E","44º50'7.07""N",44.835297,11.619865,Ferrara
Q18484193,"11º43'36.41""E, 43º44'55.00""N",Borgo alla Collina,"11º43'36.41""E","43º44'55.00""N",43.74861,11.72678,Borgo alla Collina
Q216853,"10º18'0.00""E, 43º55'60.00""N",Camaiore,"10º18'0.00""E","43º55'60.00""N",43.933333333,10.3,Camaiore
Q17660,"8º48'37.00""E, 44º58'54.00""N",Sale,"8º48'37.00""E","44º58'54.00""N",44.981666666,8.810277777,Sale
Q243371,"12º49'60.00""E, 42º0'60.00""N",San Polo dei Cavalieri,"12º49'60.00""E","42º0'60.00""N",42.016666666,12.833333333,San Polo dei Cavalieri
Q279,"10º55'32.59""E, 44º38'44.95""N",Modena,"10º55'32.59""E","44º38'44.95""N",44.64582,10.92572,Modena
Q6537,"11º33'0.00""E, 45º32'60.00""N",Vicenza,"11º33'0.00""E","45º32'60.00""N",45.55,11.55,Vicenza
Q91228,"11º12'60.00""E, 43º23'60.00""N",Monteriggioni,"11º12'60.00""E","43º23'60.00""N",43.4,11.216666666,Monteriggioni
Q220,"12º28'58.00""E, 41º53'35.00""N",Rome,"12º28'58.00""E","41º53'35.00""N",41.893055555,12.482777777,Rome
Q18021,"8º3'12.00""E, 45º33'59.00""N",Biella,"8º3'12.00""E","45º33'59.00""N",45.566388888,8.053333333,Biella
Q51871,"17º37'60.00""E, 40º30'0.00""N","Oria, Apulia","17º37'60.00""E","40º30'0.00""N",40.5,17.633333333,"Oria, Apulia"
Q244388,"9º1'60.00""E, 45º48'60.00""N",Cavallasca,"9º1'60.00""E","45º48'60.00""N",45.816666666,9.033333333,Cavallasca
Q1533,"66º55'60.00""E, 10º30'0.00""N",Caracas,"66º55'60.00""E","10º30'0.00""N",10.5,66.933333333,Caracas
Q72672,"14º22'25.00""E, 40º37'40.00""N",Sorrento,"14º22'25.00""E","40º37'40.00""N",40.627777777,14.373611111,Sorrento
Q13364,"12º12'6.00""E, 44º24'58.00""N",Ravenna,"12º12'6.00""E","44º24'58.00""N",44.416111111,12.201666666,Ravenna
Q490,"9º11'24.00""E, 45º28'1.00""N",Milan,"9º11'24.00""E","45º28'1.00""N",45.466944444,9.19,Milan
Q6122,"8º12'25.00""E, 44º53'60.00""N",Asti,"8º12'25.00""E","44º53'60.00""N",44.9,8.206944444,Asti
Q6247,"10º47'28.00""E, 45º9'23.00""N",Mantua,"10º47'28.00""E","45º9'23.00""N",45.156388888,10.791111111,Mantua
,,,,,,,
Q2656,"13º21'40.54""E, 38º6'56.37""N",Palermo,"13º21'40.54""E","38º6'56.37""N",38.115658055,13.361261944,Palermo
Q242942,"12º38'40.01""E, 42º2'1.42""N",Mentana,"12º38'40.01""E","42º2'1.42""N",42.033728,12.6444485,Mentana
Q2807,"3º41'31.00""E, 40º25'8.00""N",Madrid,"3º41'31.00""E","40º25'8.00""N",40.416666666,3.7025,Madrid
Q1155,"8º51'6.48""E, 45º36'43.05""N",Busto Arsizio,"8º51'6.48""E","45º36'43.05""N",45.611958333,8.8518,Busto Arsizio
Q13367,"12º2'27.00""E, 44º13'21.00""N",Forlì,"12º2'27.00""E","44º13'21.00""N",44.2225,12.040833333,Forlì
Q20571,"12º43'60.00""E, 42º43'60.00""N",Spoleto,"12º43'60.00""E","42º43'60.00""N",42.733333333,12.733333333,Spoleto
Q159696,"12º25'34.21""E, 42º13'10.27""N",Calcata,"12º25'34.21""E","42º13'10.27""N",42.21952,12.42617,Calcata
Q20146,"12º45'60.00""E, 42º48'60.00""N",Campello sul Clitunno,"12º45'60.00""E","42º48'60.00""N",42.816666666,12.766666666,Campello sul Clitunno
Q617,"11º52'40.00""E, 45º24'23.00""N",Padua,"11º52'40.00""E","45º24'23.00""N",45.406388888,11.877777777,Padua
Q65,"118º14'37.25""E, 34º3'8.03""N",Los Angeles,"118º14'37.25""E","34º3'8.03""N",34.05223,118.24368,Los Angeles
Q10226,"7º42'60.00""E, 45º19'60.00""N",Rivarolo Canavese,"7º42'60.00""E","45º19'60.00""N",45.331216,7.717134,Rivarolo Canavese
Q12892,"4º23'59.00""E, 51º13'16.00""N",Antwerp,"4º23'59.00""E","51º13'16.00""N",51.221111111,4.399722222,Antwerp
Q210098,"9º13'60.00""E, 44º21'0.00""N",Rapallo,"9º13'60.00""E","44º21'0.00""N",44.35,9.233333333,Rapallo
Q495,"7º42'0.00""E, 45º3'60.00""N",Turin,"7º42'0.00""E","45º3'60.00""N",45.066666666,7.7,Turin
Q6596,"13º37'9.48""E, 45º56'6.72""N",Gorizia,"13º37'9.48""E","45º56'6.72""N",45.9352,13.6193,Gorizia
Q48457,"11º9'60.00""E, 45º30'60.00""N",Tregnago,"11º9'60.00""E","45º30'60.00""N",45.516666666,11.166666666,Tregnago
Q190584,"12º43'15.85""E, 43º49'14.02""N",Colbordolo,"12º43'15.85""E","43º49'14.02""N",43.820561111,12.721069444,Colbordolo
Q3661494,"10º32'59.89""E, 45º8'27.71""N",Casatico,"10º32'59.89""E","45º8'27.71""N",45.14103,10.54997,Casatico
Q2966,"8º42'36.00""E, 49º24'44.00""N",Heidelberg,"8º42'36.00""E","49º24'44.00""N",49.412222222,8.71,Heidelberg
Q94638,"11º16'60.00""E, 44º28'60.00""N",Casalecchio di Reno,"11º16'60.00""E","44º28'60.00""N",44.483333333,11.283333333,Casalecchio di Reno
Q13378,"11º52'41.00""E, 43º27'47.00""N",Arezzo,"11º52'41.00""E","43º27'47.00""N",43.463055555,11.878055555,Arezzo
Q628,"9º40'12.00""E, 45º41'42.00""N",Bergamo,"9º40'12.00""E","45º41'42.00""N",45.695,9.67,Bergamo
Q8611,"9º49'43.97""E, 44º6'28.96""N",La Spezia,"9º49'43.97""E","44º6'28.96""N",44.108044444,9.828880555,La Spezia
Q18341,"8º1'32.29""E, 44º41'29.55""N",Alba,"8º1'32.29""E","44º41'29.55""N",44.691542,8.025636,Alba
Q270328,"9º41'1.87""E, 44º8'6.58""N",Vernazza,"9º41'1.87""E","44º8'6.58""N",44.135161111,9.683852777,Vernazza
Q5836,"4º1'60.00""E, 39º51'60.00""N",Toledo,"4º1'60.00""E","39º51'60.00""N",39.866666666,4.033333333,Toledo
Q3415,"13º30'60.00""E, 43º36'60.00""N",Ancona,"13º30'60.00""E","43º36'60.00""N",43.616666666,13.516666666,Ancona
Q2634,"14º15'0.00""E, 40º49'60.00""N",Naples,"14º15'0.00""E","40º49'60.00""N",40.833333333,14.25,Naples
Q82822,"11º11'9.00""E, 43º39'25.00""N",San Casciano in Val di Pesa,"11º11'9.00""E","43º39'25.00""N",43.656944444,11.185833333,San Casciano in Val di Pesa
Q1891,"11º20'34.00""E, 44º29'38.00""N",Bologna,"11º20'34.00""E","44º29'38.00""N",44.493888888,11.342777777,Bologna
Q60,"74º0'21.65""E, 40º42'45.82""N",New York City,"74º0'21.65""E","40º42'45.82""N",40.7,74.0,New York City
Q2790,"13º13'60.00""E, 46º3'60.00""N",Udine,"13º13'60.00""E","46º3'60.00""N",46.066666666,13.233333333,Udine
Q18485635,"11º27'50.00""E, 43º34'9.86""N",Meleto Valdarno,"11º27'50.00""E","43º34'9.86""N",43.569405555,11.463888888,Meleto Valdarno
Q50121,"13º47'23.00""E, 41º48'18.00""N",Pescasseroli,"13º47'23.00""E","41º48'18.00""N",41.805,13.789722222,Pescasseroli
Q13135,"13º27'12.00""E, 43º18'1.00""N",Macerata,"13º27'12.00""E","43º18'1.00""N",43.300277777,13.453333333,Macerata
Q2028,"10º59'34.00""E, 45º26'19.00""N",Verona,"10º59'34.00""E","45º26'19.00""N",45.438611111,10.992777777,Verona
Q2751,"11º19'53.00""E, 43º19'6.00""N",Siena,"11º19'53.00""E","43º19'6.00""N",43.318333333,11.331388888,Siena
Q237,"12º27'10.80""E, 41º54'14.40""N",Vatican City,"12º27'10.80""E","41º54'14.40""N",41.904,12.453,Vatican City
Q5475,"12º14'31.99""E, 45º40'19.99""N",Treviso,"12º14'31.99""E","45º40'19.99""N",45.672219444,12.242219444,Treviso
Q47385,"11º22'60.00""E, 45º22'60.00""N",Lonigo,"11º22'60.00""E","45º22'60.00""N",45.383333333,11.383333333,Lonigo
Q13498,"17º14'27.00""E, 40º25'5.00""N",Taranto,"17º14'27.00""E","40º25'5.00""N",40.418055555,17.240833333,Taranto
Q101388,"9º40'30.00""E, 45º56'50.00""N",Piazza Brembana,"9º40'30.00""E","45º56'50.00""N",45.947222222,9.675,Piazza Brembana
Q1210,"9º56'60.00""E, 45º38'60.00""N",Lombardy,"9º56'60.00""E","45º38'60.00""N",45.65,9.95,Lombardy
Q46931,"11º30'60.00""E, 45º21'60.00""N",Sossano,"11º30'60.00""E","45º21'60.00""N",45.366666666,11.516666666,Sossano
Q102599,"10º54'0.00""E, 43º48'60.00""N",Lamporecchio,"10º54'0.00""E","43º48'60.00""N",43.816666666,10.9,Lamporecchio
Q103305,"10º51'60.00""E, 43º23'60.00""N",Volterra,"10º51'60.00""E","43º23'60.00""N",43.4,10.866666666,Volterra
Q34560,"11º26'60.00""E, 45º3'60.00""N",Giacciano con Baruchella,"11º26'60.00""E","45º3'60.00""N",45.066666666,11.45,Giacciano con Baruchella
Q266975,"9º12'36.44""E, 44º20'5.76""N",Santa Margherita Ligure,"9º12'36.44""E","44º20'5.76""N",44.334933333,9.210122222,Santa Margherita Ligure
Q48027,"11º18'41.33""E, 45º11'34.33""N",Legnago,"11º18'41.33""E","45º11'34.33""N",45.19287,11.31148,Legnago
Q6285,"8º49'60.00""E, 45º48'60.00""N",Varese,"8º49'60.00""E","45º48'60.00""N",45.816666666,8.833333333,Varese
Q2402810,"11º2'1.00""E, 43º5'25.00""N",Boccheggiano,"11º2'1.00""E","43º5'25.00""N",43.09027778,11.03361111,Boccheggiano
Q41819,"94º34'60.00""E, 39º2'60.00""N",Kansas City,"94º34'60.00""E","39º2'60.00""N",39.05,94.583333333,"Kansas City, Missouri"
Q3437,"12º23'19.68""E, 43º6'43.56""N",Perugia,"12º23'19.68""E","43º6'43.56""N",43.1121,12.3888,Perugia
Q1449,"8º56'2.34""E, 44º24'25.87""N",Genoa,"8º56'2.34""E","44º24'25.87""N",44.407186111,8.933983333,Genoa
Q13375,"10º24'0.00""E, 43º42'60.00""N",Pisa,"10º24'0.00""E","43º42'60.00""N",43.716666666,10.4,Pisa
Q138823,"11º43'35.00""E, 42º33'1.00""N","Farnese, Lazio","11º43'35.00""E","42º33'1.00""N",42.550277777,11.726388888,"Farnese, Lazio"
Q30028725,"7º11'30.01""E, 44º57'32.72""N",Perosa Argentina,"7º11'30.01""E","44º57'32.72""N",44.95909,7.19167,Perosa Argentina
Q279373,"11º2'3.00""E, 45º52'60.00""N",Rovereto,"11º2'3.00""E","45º52'60.00""N",45.883333333,11.034166666,Rovereto
Q2044,"11º15'15.00""E, 43º46'17.00""N",Florence,"11º15'15.00""E","43º46'17.00""N",43.771388888,11.254166666,Florence
Q269516,"7º39'49.50""E, 43º55'57.14""N","Pigna, Liguria","7º39'49.50""E","43º55'57.14""N",43.932538888,7.66375,"Pigna, Liguria"
Q56086,"13º45'44.97""E, 43º0'0.78""N",Ripatransone,"13º45'44.97""E","43º0'0.78""N",43.000216666,13.762491666,Ripatransone
Q13373,"10º30'60.00""E, 43º51'0.00""N",Lucca,"10º30'60.00""E","43º51'0.00""N",43.85,10.516666666,Lucca
Q52097,"11º31'58.00""E, 43º33'52.00""N",San Giovanni Valdarno,"11º31'58.00""E","43º33'52.00""N",43.564444444,11.532777777,San Giovanni Valdarno
Q90,"2º21'5.00""E, 48º51'25.00""N",Paris,"2º21'5.00""E","48º51'25.00""N",48.856944444,2.351388888,Paris
Q11299,"73º59'39.00""E, 40º43'42.00""N",Manhattan,"73º59'39.00""E","40º43'42.00""N",40.728333333,73.994166666,Manhattan
Q641,"12º19'55.00""E, 45º26'23.00""N",Venice,"12º19'55.00""E","45º26'23.00""N",45.439722222,12.331944444,Venice
